{"features":[{"geometry":{"coordinates":[-2.7372317458104165,37.3429743375916],"type":"Point"},"properties":{"CODIGOEQUI":"1032"},"type":"Feature"},{"geometry":{"coordinates":[-2.897018024529907,37.15486016183006],"type":"Point"},"properties":{"CODIGOEQUI":"108"},"type":"Feature"},{"geometry":{"coordinates":[-2.854724680991768,37.420388306027355],"type":"Point"},"properties":{"CODIGOEQUI":"1122"},"type":"Feature"},{"geometry":{"coordinates":[-2.771122133136005,37.280659642105476],"type":"Point"},"properties":{"CODIGOEQUI":"1123"},"type":"Feature"},{"geometry":{"coordinates":[-3.046103806977667,37.14607272229901],"type":"Point"},"properties":{"CODIGOEQUI":"1127"},"type":"Feature"},{"geometry":{"coordinates":[-3.1387407297613192,37.14222540706244],"type":"Point"},"properties":{"CODIGOEQUI":"1128"},"type":"Feature"},{"geometry":{"coordinates":[-2.9511236096250433,37.16359966728419],"type":"Point"},"properties":{"CODIGOEQUI":"1136"},"type":"Feature"},{"geometry":{"coordinates":[-2.7741170471258982,37.33884140308644],"type":"Point"},"properties":{"CODIGOEQUI":"1148"},"type":"Feature"},{"geometry":{"coordinates":[-2.7820950271472333,37.28263252850351],"type":"Point"},"properties":{"CODIGOEQUI":"1240"},"type":"Feature"},{"geometry":{"coordinates":[-2.938560372182063,37.30935179768878],"type":"Point"},"properties":{"CODIGOEQUI":"1241"},"type":"Feature"},{"geometry":{"coordinates":[-2.849575841371415,37.37075522450283],"type":"Point"},"properties":{"CODIGOEQUI":"1242"},"type":"Feature"},{"geometry":{"coordinates":[-2.858453253725982,37.33137710526882],"type":"Point"},"properties":{"CODIGOEQUI":"1267"},"type":"Feature"},{"geometry":{"coordinates":[-2.851562729226838,37.38688109851646],"type":"Point"},"properties":{"CODIGOEQUI":"1268"},"type":"Feature"},{"geometry":{"coordinates":[-2.8346500885956396,37.395627931073676],"type":"Point"},"properties":{"CODIGOEQUI":"1281"},"type":"Feature"},{"geometry":{"coordinates":[-2.8072928428966666,37.32178835031467],"type":"Point"},"properties":{"CODIGOEQUI":"1282"},"type":"Feature"},{"geometry":{"coordinates":[-2.7962983221553177,37.133358025495895],"type":"Point"},"properties":{"CODIGOEQUI":"1394"},"type":"Feature"},{"geometry":{"coordinates":[-3.032183206549745,37.12177599646885],"type":"Point"},"properties":{"CODIGOEQUI":"1427"},"type":"Feature"},{"geometry":{"coordinates":[-2.8860161554078507,37.316311385218725],"type":"Point"},"properties":{"CODIGOEQUI":"1570"},"type":"Feature"},{"geometry":{"coordinates":[-2.9098566326165587,37.3060355168927],"type":"Point"},"properties":{"CODIGOEQUI":"1601"},"type":"Feature"},{"geometry":{"coordinates":[-2.848337829279389,37.3644787869627],"type":"Point"},"properties":{"CODIGOEQUI":"1661"},"type":"Feature"},{"geometry":{"coordinates":[-2.8350071464605815,37.37945802209236],"type":"Point"},"properties":{"CODIGOEQUI":"1662"},"type":"Feature"},{"geometry":{"coordinates":[-2.8503846784570896,37.37474786037319],"type":"Point"},"properties":{"CODIGOEQUI":"1663"},"type":"Feature"},{"geometry":{"coordinates":[-2.8509565216110695,37.37470415674061],"type":"Point"},"properties":{"CODIGOEQUI":"1664"},"type":"Feature"},{"geometry":{"coordinates":[-2.8509798297204547,37.3745850044353],"type":"Point"},"properties":{"CODIGOEQUI":"1665"},"type":"Feature"},{"geometry":{"coordinates":[-2.833596076559023,37.3798174099633],"type":"Point"},"properties":{"CODIGOEQUI":"1670"},"type":"Feature"},{"geometry":{"coordinates":[-2.8370238714212976,37.366221873103065],"type":"Point"},"properties":{"CODIGOEQUI":"1677"},"type":"Feature"},{"geometry":{"coordinates":[-2.846337260242875,37.437989232591356],"type":"Point"},"properties":{"CODIGOEQUI":"1695"},"type":"Feature"},{"geometry":{"coordinates":[-2.909360810780062,37.306605756395356],"type":"Point"},"properties":{"CODIGOEQUI":"1698"},"type":"Feature"},{"geometry":{"coordinates":[-2.782026999999991,37.447141],"type":"Point"},"properties":{"CODIGOEQUI":"1707"},"type":"Feature"},{"geometry":{"coordinates":[-2.84314581087851,37.39647402852089],"type":"Point"},"properties":{"CODIGOEQUI":"1708"},"type":"Feature"},{"geometry":{"coordinates":[-2.908611857248335,37.307627609386536],"type":"Point"},"properties":{"CODIGOEQUI":"1715"},"type":"Feature"},{"geometry":{"coordinates":[-2.8491232203056263,37.36356958165143],"type":"Point"},"properties":{"CODIGOEQUI":"1735"},"type":"Feature"},{"geometry":{"coordinates":[-2.9116451736156295,37.31921391312794],"type":"Point"},"properties":{"CODIGOEQUI":"1737"},"type":"Feature"},{"geometry":{"coordinates":[-2.808119003568711,37.32174832177683],"type":"Point"},"properties":{"CODIGOEQUI":"339"},"type":"Feature"},{"geometry":{"coordinates":[-2.5749210772922204,37.204443970320646],"type":"Point"},"properties":{"CODIGOEQUI":"34"},"type":"Feature"},{"geometry":{"coordinates":[-2.7641484444274624,37.35043773532388],"type":"Point"},"properties":{"CODIGOEQUI":"340"},"type":"Feature"},{"geometry":{"coordinates":[-2.843142628099375,37.39659731690696],"type":"Point"},"properties":{"CODIGOEQUI":"341"},"type":"Feature"},{"geometry":{"coordinates":[-2.8549905694337845,37.42091961624444],"type":"Point"},"properties":{"CODIGOEQUI":"342"},"type":"Feature"},{"geometry":{"coordinates":[-2.848671601243492,37.42224870837506],"type":"Point"},"properties":{"CODIGOEQUI":"344"},"type":"Feature"},{"geometry":{"coordinates":[-2.8025003538054167,37.293294998372915],"type":"Point"},"properties":{"CODIGOEQUI":"345"},"type":"Feature"},{"geometry":{"coordinates":[-2.8426777626285378,37.39770877424962],"type":"Point"},"properties":{"CODIGOEQUI":"348"},"type":"Feature"},{"geometry":{"coordinates":[-2.7646115588204347,37.349603366213366],"type":"Point"},"properties":{"CODIGOEQUI":"352"},"type":"Feature"},{"geometry":{"coordinates":[-2.7724526679488424,37.329685859986974],"type":"Point"},"properties":{"CODIGOEQUI":"353"},"type":"Feature"},{"geometry":{"coordinates":[-2.772574348288433,37.32975911830622],"type":"Point"},"properties":{"CODIGOEQUI":"354"},"type":"Feature"},{"geometry":{"coordinates":[-2.7724526679488424,37.329685859986974],"type":"Point"},"properties":{"CODIGOEQUI":"355"},"type":"Feature"},{"geometry":{"coordinates":[-2.8544934700819877,37.42149892408296],"type":"Point"},"properties":{"CODIGOEQUI":"356"},"type":"Feature"},{"geometry":{"coordinates":[-2.8558049000873784,37.42039004856806],"type":"Point"},"properties":{"CODIGOEQUI":"357"},"type":"Feature"},{"geometry":{"coordinates":[-3.1327791938479637,37.15288689211112],"type":"Point"},"properties":{"CODIGOEQUI":"401"},"type":"Feature"},{"geometry":{"coordinates":[-2.612423176089786,37.245636000071244],"type":"Point"},"properties":{"CODIGOEQUI":"42"},"type":"Feature"},{"geometry":{"coordinates":[-2.573215938387957,37.20306769547283],"type":"Point"},"properties":{"CODIGOEQUI":"45"},"type":"Feature"},{"geometry":{"coordinates":[-2.8210927729420456,37.2153654657716],"type":"Point"},"properties":{"CODIGOEQUI":"46"},"type":"Feature"},{"geometry":{"coordinates":[-2.8551844324678743,37.420697556934165],"type":"Point"},"properties":{"CODIGOEQUI":"936"},"type":"Feature"}],"type":"FeatureCollection"}
