{"features":[{"geometry":{"coordinates":[[[[-3.7090802,40.41852186],[-3.70924164,40.41839236],[-3.7097529,40.41844499],[-3.70967249,40.41852664],[-3.70932337,40.41895673],[-3.70930376,40.41898386],[-3.70927111,40.41903362],[-3.70924689,40.41907427],[-3.70923361,40.41910591],[-3.70920738,40.41916912],[-3.70919598,40.41920521],[-3.70918501,40.41925033],[-3.70917879,40.41929092],[-3.7091756,40.4193405],[-3.7091751,40.41939455],[-3.70917669,40.41944408],[-3.70917992,40.41946662],[-3.70918684,40.41949807],[-3.70920215,40.41955206],[-3.70921243,40.41958351],[-3.70922533,40.41961945],[-3.70923511,40.41963743],[-3.70925887,40.41969133],[-3.70927987,40.4196912],[-3.70930862,40.4196955],[-3.70934229,40.41970432],[-3.70936143,40.41970873],[-3.70936674,40.41972223],[-3.70936963,40.41974921],[-3.70936767,40.41977172],[-3.70936446,40.41978529],[-3.70936052,40.41979432],[-3.70934243,40.41982595],[-3.70933113,40.41983954],[-3.70931254,40.4198577],[-3.70928263,40.4198804],[-3.70932578,40.41992066],[-3.70978251,40.42034577],[-3.70981153,40.42036814],[-3.70983759,40.42039499],[-3.7101969,40.42072612],[-3.71025355,40.42078885],[-3.70951742,40.42074381],[-3.70933417,40.42069089],[-3.70935137,40.42078088],[-3.70939666,40.42081664],[-3.70945092,40.42086134],[-3.70965121,40.42106281],[-3.70980211,40.42122855],[-3.71000833,40.42149755],[-3.71011299,40.42164558],[-3.71066931,40.42249352],[-3.71060801,40.42251642],[-3.71057024,40.42257069],[-3.71029548,40.42281565],[-3.71015464,40.42294263],[-3.70924201,40.42236716],[-3.70908437,40.4222645],[-3.70817799,40.42168445],[-3.70805634,40.42160862],[-3.70794105,40.42153275],[-3.70779416,40.42143904],[-3.70718567,40.42105538],[-3.70702251,40.42095278],[-3.70686377,40.42085015],[-3.70641433,40.42056457],[-3.70607318,40.42035046],[-3.70594906,40.42031517],[-3.70622704,40.42019638],[-3.70631815,40.42017326],[-3.7079189,40.42023105],[-3.70812528,40.42023879],[-3.70844255,40.4202459],[-3.70823193,40.4199724],[-3.70815107,40.41992335],[-3.70799735,40.4198432],[-3.70794544,40.41981201],[-3.70797996,40.41969467],[-3.70810922,40.41923442],[-3.70815346,40.41905847],[-3.7081804,40.4190628],[-3.7082594,40.41908031],[-3.70845187,40.4189575],[-3.70907904,40.41852578],[-3.7090802,40.41852186]]]],"type":"MultiPolygon"},"properties":{"cusec":"2807901003"},"type":"Feature"},{"geometry":{"coordinates":[[[[-3.70930862,40.4196955],[-3.70927987,40.4196912],[-3.70925887,40.41969133],[-3.70923511,40.41963743],[-3.70922533,40.41961945],[-3.70921243,40.41958351],[-3.70920215,40.41955206],[-3.70918684,40.41949807],[-3.70917992,40.41946662],[-3.70917669,40.41944408],[-3.7091751,40.41939455],[-3.7091756,40.4193405],[-3.70917879,40.41929092],[-3.70918501,40.41925033],[-3.70919598,40.41920521],[-3.70920738,40.41916912],[-3.70923361,40.41910591],[-3.70924689,40.41907427],[-3.70927111,40.41903362],[-3.70930376,40.41898386],[-3.70932337,40.41895673],[-3.70967249,40.41852664],[-3.7097529,40.41844499],[-3.70924164,40.41839236],[-3.7090802,40.41852186],[-3.70910716,40.41843099],[-3.70914108,40.41832722],[-3.70918606,40.41784038],[-3.70922736,40.41784465],[-3.70932958,40.41786205],[-3.70942688,40.41787049],[-3.70946379,40.41787477],[-3.70988594,40.41791269],[-3.70994662,40.41790333],[-3.70999736,40.41789851],[-3.710441,40.4178057],[-3.71054852,40.41776448],[-3.71051517,40.41785028],[-3.71123479,40.41804858],[-3.7114018,40.41806558],[-3.71138453,40.4181017],[-3.71136953,40.41814685],[-3.71135465,40.41820549],[-3.71134455,40.41825961],[-3.71133759,40.41833172],[-3.71133676,40.41835874],[-3.71134109,40.41842179],[-3.7113475,40.41847131],[-3.71135256,40.41849831],[-3.71135905,40.4185208],[-3.71136931,40.41854775],[-3.71138286,40.41857469],[-3.71139862,40.41860161],[-3.7114181,40.41863304],[-3.71145734,40.41868688],[-3.71148048,40.41871375],[-3.71149646,40.41872714],[-3.71152501,40.41874951],[-3.71154688,40.41875839],[-3.71156314,40.4187673],[-3.71158936,40.41877164],[-3.7116458,40.41877578],[-3.71163428,40.41891098],[-3.71162966,40.41896059],[-3.71157272,40.41942938],[-3.71156489,40.41949251],[-3.71144516,40.41948872],[-3.71122672,40.41949007],[-3.71085861,40.419686],[-3.71112934,40.41989604],[-3.71188587,40.42058962],[-3.71192766,40.42064344],[-3.71175854,40.42067153],[-3.71113274,40.42074744],[-3.71101016,40.42075269],[-3.71065385,40.4207819],[-3.71030781,40.42079751],[-3.71025355,40.42078885],[-3.7101969,40.42072612],[-3.70983759,40.42039499],[-3.70981153,40.42036814],[-3.70978251,40.42034577],[-3.70932578,40.41992066],[-3.70928263,40.4198804],[-3.70931254,40.4198577],[-3.70933113,40.41983954],[-3.70934243,40.41982595],[-3.70936052,40.41979432],[-3.70936446,40.41978529],[-3.70936767,40.41977172],[-3.70936963,40.41974921],[-3.70936674,40.41972223],[-3.70936143,40.41970873],[-3.70934229,40.41970432],[-3.70930862,40.4196955]]]],"type":"MultiPolygon"},"properties":{"cusec":"2807901004"},"type":"Feature"},{"geometry":{"coordinates":[[[[-3.70595824,40.41808746],[-3.70661939,40.4183018],[-3.70695978,40.41823787],[-3.70703153,40.41825895],[-3.70711941,40.41827648],[-3.70731681,40.41823924],[-3.70742379,40.41822056],[-3.70747837,40.41822473],[-3.70778711,40.4182679],[-3.70813754,40.4183153],[-3.70815009,40.41831974],[-3.70817911,40.41831054],[-3.70847134,40.4183538],[-3.70845504,40.41838546],[-3.70821799,40.41885535],[-3.7081805,40.41893667],[-3.70817777,40.41895468],[-3.70815346,40.41905847],[-3.70810922,40.41923442],[-3.70797996,40.41969467],[-3.70794544,40.41981201],[-3.70799735,40.4198432],[-3.70815107,40.41992335],[-3.70823193,40.4199724],[-3.70844255,40.4202459],[-3.70812528,40.42023879],[-3.7079189,40.42023105],[-3.70631815,40.42017326],[-3.70622704,40.42019638],[-3.70594906,40.42031517],[-3.7056999,40.42029866],[-3.70568658,40.42029424],[-3.70551737,40.4202818],[-3.7053161,40.42026948],[-3.70483801,40.42023636],[-3.70396472,40.42017409],[-3.70346823,40.42014105],[-3.70301664,40.42011228],[-3.70244968,40.42007067],[-3.70230265,40.42006256],[-3.70164907,40.42001698],[-3.70157424,40.42001293],[-3.70158284,40.41985073],[-3.70168253,40.4197285],[-3.70174653,40.41964704],[-3.70177746,40.4196108],[-3.70183196,40.41949783],[-3.70209514,40.41895122],[-3.70210197,40.41893766],[-3.70211743,40.41890153],[-3.70215385,40.41886075],[-3.70221171,40.41879282],[-3.70250976,40.41823247],[-3.70257373,40.4182546],[-3.7029774,40.41838728],[-3.70304162,40.41840489],[-3.70374967,40.41869342],[-3.70375243,40.41874295],[-3.70373555,40.41882412],[-3.70379438,40.41888233],[-3.70387131,40.41895393],[-3.70413578,40.41919557],[-3.70419787,40.41924925],[-3.70435119,40.41936543],[-3.70441167,40.41941012],[-3.70450654,40.41931944],[-3.70487889,40.41896132],[-3.70490385,40.41895667],[-3.70493065,40.41894748],[-3.70488697,40.41888921],[-3.70493646,40.41886637],[-3.7050652,40.41877998],[-3.70514592,40.41874798],[-3.70506927,40.41863584],[-3.70513709,40.41860842],[-3.70538821,40.41831855],[-3.70544332,40.41823265],[-3.70545826,40.418147],[-3.70547153,40.4180748],[-3.70555805,40.41796618],[-3.70556858,40.41795263],[-3.70566186,40.41799256],[-3.70595678,40.41808988],[-3.70595824,40.41808746]]]],"type":"MultiPolygon"},"properties":{"cusec":"2807901117"},"type":"Feature"},{"geometry":{"coordinates":[[[[-3.70451735,40.41659716],[-3.70328771,40.41671745],[-3.70327364,40.41669629],[-3.70327567,40.41661068],[-3.70325906,40.41614681],[-3.7032477,40.41583157],[-3.70322729,40.41525512],[-3.70339653,40.41470455],[-3.70341622,40.41464585],[-3.70327742,40.41454308],[-3.70321233,40.41452096],[-3.70330332,40.41444836],[-3.70354867,40.41417205],[-3.70395215,40.41429572],[-3.70441942,40.41445507],[-3.70550301,40.41477279],[-3.70559232,40.41479027],[-3.70554534,40.41498424],[-3.70552049,40.41520963],[-3.70555697,40.41524995],[-3.70561414,40.41529466],[-3.7057178,40.41530751],[-3.70577711,40.41531165],[-3.70579009,40.41535213],[-3.7057202,40.41571745],[-3.70572161,40.41574445],[-3.70572221,40.41576694],[-3.70569406,40.41596081],[-3.70569956,40.41599234],[-3.70570223,40.41600581],[-3.70570939,40.41605533],[-3.70576695,40.41634325],[-3.70577955,40.41642428],[-3.70512626,40.41650934],[-3.70463629,40.41657088],[-3.70454948,40.41658493],[-3.7045168,40.41659413],[-3.70451735,40.41659716]]]],"type":"MultiPolygon"},"properties":{"cusec":"2807901120"},"type":"Feature"},{"geometry":{"coordinates":[[[[-3.70311468,40.41830537],[-3.70347403,40.41769057],[-3.70348096,40.41768151],[-3.70349441,40.41766794],[-3.70351635,40.41764978],[-3.70353391,40.41764065],[-3.70355996,40.41762697],[-3.70358924,40.4176133],[-3.70365781,40.41758137],[-3.70363731,40.41752292],[-3.70363572,40.41751392],[-3.70356619,40.41723956],[-3.70339897,40.41688474],[-3.70328771,40.41671745],[-3.70451735,40.41659716],[-3.7045168,40.41659413],[-3.70454948,40.41658493],[-3.70463629,40.41657088],[-3.70512626,40.41650934],[-3.70577955,40.41642428],[-3.70699674,40.4162682],[-3.7076831,40.41617391],[-3.70794056,40.41614081],[-3.7080159,40.41612682],[-3.70818309,40.41608528],[-3.7085887,40.4159837],[-3.70870401,40.41595597],[-3.708677,40.41605073],[-3.70871696,40.41631175],[-3.70877358,40.41633843],[-3.7086435,40.41636624],[-3.70862835,40.41639792],[-3.70867186,40.41675347],[-3.70869521,40.4168029],[-3.70870032,40.41683437],[-3.70871534,40.41703699],[-3.70869234,40.41712723],[-3.70858919,40.41772243],[-3.70852319,40.41778141],[-3.70876058,40.41780245],[-3.70874171,40.41789718],[-3.70852158,40.41826341],[-3.70851146,40.4182815],[-3.70847134,40.4183538],[-3.70817911,40.41831054],[-3.70815009,40.41831974],[-3.70813754,40.4183153],[-3.70778711,40.4182679],[-3.70747837,40.41822473],[-3.70742379,40.41822056],[-3.70731681,40.41823924],[-3.70711941,40.41827648],[-3.70703153,40.41825895],[-3.70695978,40.41823787],[-3.70661939,40.4183018],[-3.70595824,40.41808746],[-3.70595678,40.41808988],[-3.70566186,40.41799256],[-3.70556858,40.41795263],[-3.70555805,40.41796618],[-3.70547153,40.4180748],[-3.70545826,40.418147],[-3.70544332,40.41823265],[-3.70538821,40.41831855],[-3.70513709,40.41860842],[-3.70506927,40.41863584],[-3.70514592,40.41874798],[-3.7050652,40.41877998],[-3.70493646,40.41886637],[-3.70488697,40.41888921],[-3.70493065,40.41894748],[-3.70490385,40.41895667],[-3.70487889,40.41896132],[-3.70450654,40.41931944],[-3.70441167,40.41941012],[-3.70435119,40.41936543],[-3.70419787,40.41924925],[-3.70413578,40.41919557],[-3.70387131,40.41895393],[-3.70379438,40.41888233],[-3.70373555,40.41882412],[-3.70375243,40.41874295],[-3.70374967,40.41869342],[-3.70304162,40.41840489],[-3.70311468,40.41830537]]]],"type":"MultiPolygon"},"properties":{"cusec":"2807901123"},"type":"Feature"},{"geometry":{"coordinates":[[[[-3.68896566,40.41545345],[-3.6889488,40.41506168],[-3.68893531,40.41475092],[-3.68893385,40.41471486],[-3.6889332,40.41461582],[-3.68893201,40.4144987],[-3.68893032,40.41444465],[-3.68892652,40.41414288],[-3.68892709,40.41408883],[-3.68892359,40.41399424],[-3.68892245,40.41395823],[-3.68913198,40.41395698],[-3.6902269,40.41394142],[-3.69038451,40.41394048],[-3.69054691,40.41393501],[-3.69134317,40.41393026],[-3.69146875,40.41392951],[-3.69147836,40.41422227],[-3.69148252,40.41426277],[-3.69148743,40.41427627],[-3.69149643,40.4142942],[-3.69157263,40.41439739],[-3.6915808,40.41440632],[-3.69159141,40.41443329],[-3.69158974,40.41444679],[-3.69158997,40.41446935],[-3.69158892,40.41447836],[-3.69158093,40.41452797],[-3.69157489,40.41455051],[-3.69156491,40.41457762],[-3.69155836,40.41459115],[-3.69154247,40.41461826],[-3.69151782,40.41465896],[-3.69150048,40.41469058],[-3.6914919,40.41471317],[-3.69148698,40.41474023],[-3.69149381,40.41504651],[-3.69149877,40.41520862],[-3.6916973,40.41520744],[-3.69344105,40.41514298],[-3.69364876,40.41585794],[-3.69366782,40.41602899],[-3.69357717,40.41642144],[-3.69355821,40.41651163],[-3.69345459,40.41700776],[-3.69339155,40.417355],[-3.69321876,40.41821636],[-3.69316796,40.41843291],[-3.69312988,40.41867191],[-3.69304225,40.41878051],[-3.69295426,40.41889815],[-3.69283315,40.41904751],[-3.69264057,40.4191613],[-3.69255262,40.4192429],[-3.69247983,40.41936046],[-3.69247285,40.41947311],[-3.69148199,40.41961868],[-3.69089392,40.41970778],[-3.69055965,40.41973227],[-3.68932886,40.41990177],[-3.68871113,40.42000908],[-3.68876496,40.41954478],[-3.6887777,40.41938705],[-3.68877359,40.419306],[-3.68880587,40.41878776],[-3.68880965,40.41876073],[-3.68890792,40.41799439],[-3.68891382,40.41792223],[-3.6889235,40.41782311],[-3.68896719,40.41733633],[-3.68900095,40.41689468],[-3.68900945,40.41675476],[-3.68901736,40.41662433],[-3.68900648,40.41649377],[-3.68898305,40.41593083],[-3.68897682,40.41576903],[-3.68897005,40.41559308],[-3.68896818,40.41552102],[-3.68896566,40.41545345]]]],"type":"MultiPolygon"},"properties":{"cusec":"2807903069"},"type":"Feature"},{"geometry":{"coordinates":[[[[-3.67086913,40.41553717],[-3.67173473,40.41494655],[-3.67179766,40.41497772],[-3.67229467,40.41498836],[-3.6723418,40.41506014],[-3.67278455,40.41506208],[-3.67351329,40.41508042],[-3.67407033,40.41509065],[-3.67451974,40.41509703],[-3.67457495,40.41509221],[-3.67456156,40.41541211],[-3.6745624,40.41542111],[-3.6745686,40.41545264],[-3.67457619,40.41547511],[-3.67459608,40.41551103],[-3.67461739,40.41554242],[-3.67485978,40.41577077],[-3.67480108,40.41593776],[-3.67328262,40.41614479],[-3.67173558,40.41636099],[-3.67158912,40.41637985],[-3.67157731,40.41652857],[-3.67156619,40.41666826],[-3.66937766,40.4165323],[-3.66938454,40.41644667],[-3.66938681,40.41641513],[-3.66938976,40.41637907],[-3.66939472,40.41632498],[-3.66965001,40.41617484],[-3.67086913,40.41553717]]]],"type":"MultiPolygon"},"properties":{"cusec":"2807903087"},"type":"Feature"},{"geometry":{"coordinates":[[[[-3.6741429,40.58886143],[-3.67414274,40.5888596],[-3.67452136,40.5886502],[-3.67530643,40.58824474],[-3.67584741,40.58798481],[-3.67723749,40.58730101],[-3.67777847,40.58704109],[-3.67823931,40.5868222],[-3.67844067,40.58672189],[-3.67868502,40.58659886],[-3.67926809,40.58631165],[-3.67979724,40.5860518],[-3.68033822,40.58579637],[-3.68089926,40.58551832],[-3.68128743,40.58534035],[-3.68203026,40.58496211],[-3.68272725,40.58458412],[-3.68307479,40.58437489],[-3.68325943,40.58426568],[-3.68373251,40.58397911],[-3.68408231,40.58377435],[-3.68438056,40.58357892],[-3.68452256,40.58349249],[-3.68502389,40.58326428],[-3.68588577,40.58286732],[-3.68716699,40.5825399],[-3.68760532,40.58254178],[-3.68865443,40.58254907],[-3.69031274,40.5812194],[-3.69058716,40.58101054],[-3.69086436,40.58085576],[-3.6912159,40.58068248],[-3.69163352,40.58050434],[-3.69241932,40.58025637],[-3.69303774,40.5800725],[-3.69343368,40.57997552],[-3.69373913,40.57991517],[-3.69425805,40.57982192],[-3.69540485,40.57967543],[-3.69584508,40.5796142],[-3.69638922,40.57946229],[-3.69692745,40.57931038],[-3.69741298,40.57916784],[-3.69804928,40.57899735],[-3.69879027,40.57878116],[-3.69941902,40.57859721],[-3.69999499,40.57859373],[-3.70005838,40.57865639],[-3.70360729,40.5786799],[-3.70581015,40.57872055],[-3.70742761,40.57849897],[-3.70962618,40.57848101],[-3.71088365,40.57504991],[-3.71207261,40.5720967],[-3.71337336,40.56977344],[-3.71385474,40.56904077],[-3.71423028,40.5684934],[-3.71448588,40.56808643],[-3.7149142,40.56761082],[-3.71546248,40.56695878],[-3.71580115,40.56641617],[-3.71609439,40.56545942],[-3.71611756,40.56499981],[-3.71608067,40.564446],[-3.71600659,40.56380231],[-3.71591724,40.56310467],[-3.71582818,40.56240254],[-3.715375,40.56119815],[-3.71550739,40.56070189],[-3.71484163,40.55932763],[-3.71437717,40.55838006],[-3.7143631,40.55833961],[-3.71418289,40.55798488],[-3.71315769,40.55629303],[-3.71233394,40.55494678],[-3.71123315,40.55360674],[-3.71023341,40.55256783],[-3.70966794,40.55144519],[-3.70946763,40.55005004],[-3.70911009,40.5478901],[-3.70909539,40.54789468],[-3.70908025,40.54789477],[-3.70906513,40.54789487],[-3.70904997,40.54789496],[-3.70903483,40.54789505],[-3.70901974,40.54789514],[-3.70900491,40.54789075],[-3.7089905,40.54788634],[-3.70897606,40.54788643],[-3.70896201,40.54788201],[-3.70894828,40.54787307],[-3.70893529,40.54786865],[-3.70892274,40.54786424],[-3.70891046,40.54785532],[-3.7088989,40.54784635],[-3.70888816,40.54784191],[-3.7088781,40.54783297],[-3.70886874,40.547824],[-3.70886018,40.54781507],[-3.70885264,40.54780159],[-3.70884594,40.54779263],[-3.70882998,40.54778369],[-3.70882873,40.54777022],[-3.70882788,40.54776121],[-3.70882542,40.54773872],[-3.70852543,40.5476009],[-3.70873415,40.54559062],[-3.708743,40.54488789],[-3.70864611,40.54416776],[-3.70863933,40.54411825],[-3.70824893,40.5431747],[-3.70779977,40.54236667],[-3.70751083,40.54190899],[-3.70585883,40.54009476],[-3.70740391,40.53773849],[-3.70888272,40.53545023],[-3.70993291,40.53411947],[-3.71146391,40.53228128],[-3.71700372,40.53083269],[-3.72106446,40.52958676],[-3.72587189,40.52775941],[-3.72684109,40.52461371],[-3.72710072,40.52467512],[-3.72763699,40.52472581],[-3.72775161,40.52475215],[-3.72798501,40.52470563],[-3.72809577,40.52468243],[-3.7281886,40.5246638],[-3.72849238,40.52461235],[-3.72883649,40.52450208],[-3.73241355,40.5213714],[-3.73948887,40.51387604],[-3.73965649,40.51331639],[-3.74004499,40.51318779],[-3.74025168,40.51300181],[-3.74038323,40.5126541],[-3.74040772,40.51229363],[-3.74046912,40.51153648],[-3.74121741,40.51035148],[-3.74162867,40.50978581],[-3.74181756,40.50965396],[-3.74216805,40.50902562],[-3.74217313,40.50901658],[-3.7351819,40.5067684],[-3.73472786,40.50755056],[-3.73277736,40.50699987],[-3.73323057,40.50617717],[-3.73278328,40.50605191],[-3.73264863,40.5060142],[-3.73224351,40.50386361],[-3.73262872,40.50340173],[-3.73368124,40.50265181],[-3.7343718,40.50215649],[-3.73444867,40.50210194],[-3.73604866,40.49778999],[-3.73629702,40.49716228],[-3.73713594,40.49550829],[-3.73825719,40.49323091],[-3.73832101,40.4931359],[-3.73865859,40.49244458],[-3.73891437,40.49185733],[-3.73918548,40.49136014],[-3.73983985,40.49054064],[-3.74027077,40.490155],[-3.74042722,40.48973056],[-3.74084472,40.48929999],[-3.74123395,40.48895063],[-3.74273258,40.48761671],[-3.74414511,40.4861437],[-3.7448757,40.48532365],[-3.74525097,40.48471765],[-3.74535193,40.484244],[-3.74522859,40.48379435],[-3.74502702,40.48353441],[-3.7447962,40.48329713],[-3.74465789,40.48319894],[-3.74453643,40.48311413],[-3.7442244,40.48294049],[-3.74371311,40.48257888],[-3.74327756,40.48226638],[-3.74284238,40.48195384],[-3.7423851,40.48167751],[-3.74196585,40.48140543],[-3.74162271,40.48118239],[-3.7459428,40.47819518],[-3.74664828,40.47770865],[-3.74735817,40.47816352],[-3.7480281,40.4783664],[-3.75138132,40.47844377],[-3.75357229,40.47830339],[-3.75433009,40.47887953],[-3.75432046,40.47976701],[-3.7543991,40.48050072],[-3.754421,40.48058165],[-3.75449891,40.48072079],[-3.75451642,40.48080624],[-3.75450138,40.48163516],[-3.75454297,40.48169797],[-3.75472314,40.48181392],[-3.75479133,40.48188102],[-3.75482507,40.48196193],[-3.75486886,40.48218685],[-3.75486666,40.48238504],[-3.75479345,40.48322337],[-3.754796,40.4836828],[-3.7548679,40.48391206],[-3.75509805,40.48431595],[-3.75520843,40.4848873],[-3.75520148,40.48512161],[-3.75511659,40.48541043],[-3.75508003,40.4856359],[-3.75508834,40.48608181],[-3.75511799,40.48639241],[-3.75516208,40.48690565],[-3.75525457,40.4871978],[-3.75534967,40.48742244],[-3.75554971,40.48774093],[-3.75557364,40.4877678],[-3.75560053,40.48779918],[-3.75578689,40.48797359],[-3.75658723,40.48852244],[-3.75684091,40.48868295],[-3.75726277,40.48895047],[-3.75765415,40.48915959],[-3.75765394,40.48917311],[-3.75788268,40.48928422],[-3.75802881,40.4893914],[-3.75805179,40.48943174],[-3.75808502,40.48963428],[-3.7581659,40.48977786],[-3.75826178,40.48987632],[-3.75867268,40.49014842],[-3.75890161,40.4906379],[-3.75891478,40.49072791],[-3.75887879,40.49100291],[-3.75872297,40.49163909],[-3.75867664,40.4919457],[-3.75867444,40.49207632],[-3.75889438,40.49248478],[-3.75894667,40.49270968],[-3.75895292,40.49286729],[-3.75894276,40.49294843],[-3.75869481,40.49342755],[-3.75867069,40.49351326],[-3.75866065,40.49390073],[-3.75851535,40.494226],[-3.75844715,40.49474894],[-3.75847923,40.49491541],[-3.7587232,40.49532827],[-3.75890957,40.49550719],[-3.75901877,40.49564159],[-3.75945461,40.49599462],[-3.75978177,40.49639334],[-3.75994818,40.49650038],[-3.7599828,40.4965587],[-3.76011541,40.49658036],[-3.76031236,40.49661512],[-3.76071153,40.4967296],[-3.7610803,40.49688933],[-3.76142919,40.49689153],[-3.7615743,40.49687706],[-3.76166624,40.49685397],[-3.76195478,40.49670337],[-3.76204727,40.49663069],[-3.76228923,40.49634535],[-3.76234559,40.49630443],[-3.76242423,40.4962814],[-3.76259383,40.49627578],[-3.76275119,40.49629723],[-3.76329146,40.49643332],[-3.76370455,40.49647115],[-3.76469667,40.49752313],[-3.76602709,40.49890621],[-3.76765445,40.50087289],[-3.7689211,40.50260323],[-3.76980551,40.50376399],[-3.77029371,40.50468866],[-3.77073184,40.50601007],[-3.77115667,40.50709733],[-3.77188505,40.50831769],[-3.77330228,40.51006493],[-3.77428707,40.51115293],[-3.77685623,40.51535188],[-3.77690329,40.51572094],[-3.77708539,40.51616118],[-3.77640094,40.51636847],[-3.77578609,40.51653471],[-3.77565049,40.51626087],[-3.77562695,40.51623401],[-3.7755795,40.51614873],[-3.77550378,40.51607718],[-3.7754492,40.51604603],[-3.77529538,40.51614162],[-3.77524794,40.51615546],[-3.77515495,40.51621912],[-3.77504327,40.51628746],[-3.77469609,40.51650602],[-3.77452984,40.51661521],[-3.77397237,40.51696131],[-3.77385663,40.51703415],[-3.77434204,40.51747682],[-3.77494257,40.51801784],[-3.77569127,40.51871102],[-3.7759126,40.51900234],[-3.77563326,40.51899069],[-3.77402341,40.51841591],[-3.77371989,40.51835938],[-3.77355264,40.51828389],[-3.7735633,40.51844151],[-3.77354403,40.51859478],[-3.77327905,40.52121812],[-3.77329551,40.52149731],[-3.77335317,40.52173115],[-3.77353889,40.52206323],[-3.77390124,40.52252029],[-3.77594702,40.52470923],[-3.7771884,40.52604772],[-3.77767447,40.52663455],[-3.77699767,40.52716609],[-3.77679058,40.52699636],[-3.77441579,40.52870592],[-3.77531306,40.53004676],[-3.77679972,40.53044219],[-3.77795945,40.53076922],[-3.77867083,40.53255444],[-3.77974228,40.53242823],[-3.77975348,40.53246732],[-3.77985098,40.5327955],[-3.77988258,40.53284933],[-3.7802113,40.53354531],[-3.7805134,40.53401626],[-3.78091805,40.53454504],[-3.78120641,40.53484488],[-3.78127033,40.53488498],[-3.78182186,40.53478218],[-3.78241426,40.53460699],[-3.78288828,40.53446866],[-3.78343734,40.5343118],[-3.78354322,40.53427952],[-3.78463198,40.53585321],[-3.78496373,40.53642303],[-3.78500809,40.53658939],[-3.78502817,40.53676043],[-3.7850442,40.53712067],[-3.78497194,40.5376662],[-3.78488472,40.53803164],[-3.78460711,40.53849749],[-3.78440738,40.53871055],[-3.78407539,40.5390056],[-3.78365512,40.53932375],[-3.78327208,40.53967317],[-3.78310704,40.53988603],[-3.78304823,40.53997199],[-3.782947,40.54018437],[-3.78282304,40.54053209],[-3.78276249,40.54088381],[-3.78277565,40.54115848],[-3.78283063,40.54147344],[-3.78310394,40.54260221],[-3.78314868,40.54295776],[-3.78314986,40.54318746],[-3.78311964,40.54341292],[-3.78304276,40.54368818],[-3.78293805,40.54395016],[-3.78267312,40.54452402],[-3.78254924,40.54491224],[-3.78252185,40.54503404],[-3.78251079,40.54525933],[-3.78253504,40.545597],[-3.78258192,40.54579037],[-3.78272368,40.54611372],[-3.78348888,40.54736078],[-3.78370932,40.54778272],[-3.78380916,40.5480523],[-3.78413905,40.54953652],[-3.78412538,40.54953661],[-3.78414665,40.54964907],[-3.78501179,40.55392692],[-3.78547442,40.55621205],[-3.78582488,40.55774568],[-3.78593688,40.55826742],[-3.78606528,40.5590188],[-3.7859732,40.5613752],[-3.78579539,40.56432227],[-3.78556223,40.5682202],[-3.78559577,40.56881004],[-3.78577388,40.56930432],[-3.7872497,40.57291584],[-3.78766881,40.5758183],[-3.78760626,40.57615206],[-3.78725591,40.5768526],[-3.78681748,40.57794118],[-3.78684242,40.57893199],[-3.78714121,40.57950652],[-3.78777244,40.58012829],[-3.7893275,40.58143301],[-3.78998806,40.58227982],[-3.79014001,40.58279677],[-3.79025989,40.58394907],[-3.79074931,40.58493671],[-3.79109982,40.58538027],[-3.79247026,40.5867672],[-3.79341099,40.58772019],[-3.79430109,40.58892127],[-3.79513948,40.59020825],[-3.79591132,40.5914597],[-3.7962002,40.59230901],[-3.79616774,40.59293535],[-3.79595244,40.59380619],[-3.7954068,40.5948234],[-3.79504827,40.59594748],[-3.79522961,40.59669847],[-3.79548731,40.59716066],[-3.79594389,40.59757189],[-3.79679949,40.59806151],[-3.79736024,40.59831436],[-3.79791961,40.5984592],[-3.80147546,40.59823188],[-3.80227339,40.59833896],[-3.80317623,40.5986615],[-3.80335572,40.598881],[-3.80304623,40.59888874],[-3.80260899,40.59889846],[-3.80111195,40.59893168],[-3.80079228,40.59886133],[-3.79980481,40.59864394],[-3.79917571,40.59850545],[-3.79911552,40.59854078],[-3.79901702,40.59859858],[-3.79861349,40.59883546],[-3.79841015,40.59895852],[-3.7984094,40.59895897],[-3.79830023,40.59902502],[-3.79732505,40.59971281],[-3.79695783,40.59984565],[-3.79677425,40.59991208],[-3.79634463,40.59991419],[-3.79609599,40.59991544],[-3.79584185,40.59991671],[-3.79534313,40.59992372],[-3.79524466,40.59992057],[-3.79524337,40.59992054],[-3.79504161,40.5999141],[-3.794772,40.59987204],[-3.79463048,40.59984995],[-3.7945378,40.59983548],[-3.79440013,40.59981401],[-3.7942239,40.59978651],[-3.79422344,40.59978643],[-3.79413464,40.59977258],[-3.79399412,40.59974283],[-3.79363539,40.59966693],[-3.7932822,40.5995922],[-3.79311212,40.59955621],[-3.79171257,40.59926586],[-3.79169932,40.59926311],[-3.79167845,40.59925879],[-3.79167841,40.59925878],[-3.7908555,40.5991239],[-3.78990734,40.59900066],[-3.78979866,40.59901688],[-3.78911801,40.59911864],[-3.78814591,40.59956223],[-3.7874103,40.59992415],[-3.78689814,40.60017618],[-3.78644901,40.60039716],[-3.785158,40.60046898],[-3.78497188,40.60064631],[-3.78453614,40.60106149],[-3.78357536,40.60177879],[-3.78337687,40.60177191],[-3.78337543,40.60177186],[-3.78296639,40.60175769],[-3.78274597,40.60166443],[-3.78261986,40.60161109],[-3.78261879,40.60161064],[-3.78250317,40.60156172],[-3.78244396,40.60152225],[-3.78238407,40.60148236],[-3.78227124,40.60139211],[-3.78220869,40.60134211],[-3.78203352,40.60117092],[-3.78171611,40.60086074],[-3.78108658,40.60097396],[-3.77994105,40.60117995],[-3.77893469,40.60174439],[-3.7784957,40.60176986],[-3.77849528,40.60176989],[-3.77826736,40.6017831],[-3.77790667,40.60166002],[-3.77790393,40.60165909],[-3.7778762,40.60164967],[-3.77725278,40.60143676],[-3.77637618,40.60116427],[-3.77550337,40.6009107],[-3.77486297,40.6007204],[-3.77470976,40.60067073],[-3.77450278,40.60060363],[-3.77439723,40.60056944],[-3.77439537,40.60056883],[-3.77431842,40.60054389],[-3.77407456,40.60050087],[-3.77386386,40.60046371],[-3.77371797,40.60043798],[-3.77323252,40.60036376],[-3.77236098,40.60022726],[-3.77236091,40.60022724],[-3.77150258,40.60008701],[-3.77111453,40.60002994],[-3.77093431,40.60000342],[-3.77084851,40.59999341],[-3.77077495,40.59998484],[-3.76872948,40.59974605],[-3.76853087,40.59971841],[-3.76852678,40.59971784],[-3.76834005,40.59969187],[-3.76815616,40.59965171],[-3.768156,40.59965167],[-3.76812795,40.59964555],[-3.7680076,40.59961225],[-3.76800638,40.59961191],[-3.76794653,40.59959537],[-3.76790038,40.59957926],[-3.76781241,40.59954855],[-3.76752735,40.59942159],[-3.76633492,40.59880967],[-3.7662188,40.59875364],[-3.76621786,40.5987532],[-3.76616377,40.59872708],[-3.76599989,40.59865608],[-3.76577558,40.59857738],[-3.76554008,40.59849335],[-3.76530453,40.59840934],[-3.76530184,40.59840911],[-3.76530015,40.59840896],[-3.76471662,40.59836251],[-3.7642079,40.59832203],[-3.76420773,40.59832201],[-3.76385134,40.59822786],[-3.76278656,40.59794671],[-3.76143738,40.59753253],[-3.7614245,40.59752857],[-3.76139905,40.59752073],[-3.76138997,40.59751705],[-3.76138986,40.597517],[-3.76102493,40.59736824],[-3.76085501,40.59729503],[-3.76085398,40.59729458],[-3.76085268,40.59729421],[-3.76062401,40.59722733],[-3.7605787,40.59721409],[-3.76051359,40.59719505],[-3.76013248,40.597113],[-3.75974587,40.59702978],[-3.75929974,40.59673204],[-3.75839189,40.59612612],[-3.7583918,40.59612611],[-3.757709,40.59606569],[-3.75767144,40.59606235],[-3.75729833,40.59608732],[-3.7568317,40.59592291],[-3.75505528,40.59529683],[-3.75503935,40.59529122],[-3.75411602,40.5949658],[-3.75377421,40.59483292],[-3.75358094,40.59478099],[-3.75343557,40.59476217],[-3.75343533,40.59476214],[-3.7534351,40.59476214],[-3.75325686,40.59475517],[-3.75322125,40.59475637],[-3.75316933,40.5947581],[-3.75295446,40.59476527],[-3.75295251,40.59476438],[-3.75262316,40.59461252],[-3.75251126,40.59456097],[-3.75250867,40.59455962],[-3.75230688,40.59445508],[-3.75223678,40.59442037],[-3.75186393,40.59405256],[-3.75152124,40.59374324],[-3.75145121,40.59368002],[-3.75144256,40.59367222],[-3.75012211,40.5924801],[-3.74966254,40.59261834],[-3.74922679,40.5927494],[-3.74921287,40.59275356],[-3.7492127,40.59275358],[-3.74683102,40.59239755],[-3.74622616,40.5923071],[-3.74601195,40.59227507],[-3.74574694,40.59223545],[-3.74572229,40.59221553],[-3.74571503,40.59220966],[-3.74568064,40.59218182],[-3.7453009,40.59187345],[-3.74511094,40.59182147],[-3.74100347,40.59069672],[-3.74081667,40.5906456],[-3.73963188,40.58929729],[-3.73943583,40.58878869],[-3.7391576,40.58806705],[-3.73885892,40.58754307],[-3.73877074,40.58738845],[-3.73875408,40.58733908],[-3.73869504,40.5871646],[-3.73865206,40.58710743],[-3.73838851,40.58675682],[-3.73838676,40.58675448],[-3.73817438,40.58647195],[-3.73817342,40.58647065],[-3.73787037,40.58635714],[-3.73773392,40.58630602],[-3.73761334,40.58626085],[-3.7375159,40.58622435],[-3.73738565,40.58617551],[-3.73729535,40.58614168],[-3.73722537,40.58611546],[-3.73695763,40.58605049],[-3.73651801,40.58594071],[-3.73578461,40.58575681],[-3.73577499,40.58575441],[-3.73577015,40.58575367],[-3.73563592,40.58573339],[-3.73543545,40.58570313],[-3.73543123,40.5857025],[-3.73513947,40.58565846],[-3.73475782,40.58558562],[-3.7347558,40.58558524],[-3.73426314,40.58548567],[-3.7335433,40.58535598],[-3.7331919,40.58531228],[-3.73293129,40.58536349],[-3.73270109,40.58538294],[-3.73258378,40.58538866],[-3.73233966,40.58540054],[-3.73207143,40.58539864],[-3.73186466,40.58538024],[-3.7318616,40.58537997],[-3.73166457,40.58536249],[-3.73082629,40.58526961],[-3.72999522,40.58517755],[-3.7296003,40.58503178],[-3.72953022,40.58500592],[-3.72925848,40.58490561],[-3.72826567,40.58455152],[-3.72768622,40.58438777],[-3.72768595,40.58438769],[-3.72709935,40.58422192],[-3.72573,40.58379901],[-3.72467441,40.58350775],[-3.72343795,40.58316654],[-3.7232106,40.58309675],[-3.72279656,40.58296963],[-3.72193042,40.5827169],[-3.72192168,40.58271436],[-3.72189571,40.58270679],[-3.72166231,40.582651],[-3.72145613,40.58260171],[-3.72145499,40.58260144],[-3.72145351,40.58260066],[-3.72140494,40.58257531],[-3.72069696,40.58220615],[-3.72030308,40.58217314],[-3.71944553,40.58210126],[-3.71943627,40.58210051],[-3.71930092,40.58214908],[-3.71927225,40.58215937],[-3.71763718,40.58274608],[-3.71723158,40.58289162],[-3.71710158,40.58288011],[-3.71694143,40.58286591],[-3.71454683,40.58265333],[-3.71388618,40.58292691],[-3.71300099,40.58329345],[-3.71225369,40.58319523],[-3.71221741,40.58319046],[-3.71217626,40.58318505],[-3.71175382,40.58312822],[-3.71155094,40.58309995],[-3.71154926,40.58309971],[-3.71154908,40.5830997],[-3.71154562,40.58309945],[-3.7113079,40.58308225],[-3.7111474,40.58309503],[-3.71084151,40.58311936],[-3.71004044,40.58326106],[-3.71003442,40.58326213],[-3.71003437,40.58326214],[-3.70858886,40.58351786],[-3.70788596,40.58375637],[-3.70771657,40.5833521],[-3.70770998,40.5833364],[-3.70770058,40.58331402],[-3.70767166,40.58324499],[-3.7076314,40.58314898],[-3.70733569,40.58312483],[-3.70700691,40.58309801],[-3.70655758,40.58306134],[-3.70655434,40.58306108],[-3.7065204,40.5830583],[-3.70603639,40.58301884],[-3.70591732,40.58300911],[-3.70586462,40.5830048],[-3.70581987,40.5830024],[-3.70575164,40.58299873],[-3.70539944,40.58297981],[-3.70539774,40.58297972],[-3.70539757,40.58297971],[-3.7053899,40.58412433],[-3.70538916,40.58423473],[-3.70538915,40.5842365],[-3.70538802,40.58440253],[-3.70538731,40.58450846],[-3.70538724,40.58451961],[-3.70538609,40.584696],[-3.70538607,40.58469687],[-3.70512136,40.58479937],[-3.7048353,40.58491014],[-3.70326326,40.58604469],[-3.70296473,40.58626021],[-3.70210259,40.58687445],[-3.70129354,40.5872877],[-3.7004194,40.5877342],[-3.70009513,40.58790531],[-3.70009232,40.58790679],[-3.69948158,40.58822906],[-3.69831187,40.58881088],[-3.69647589,40.58976244],[-3.69635734,40.58984335],[-3.69630316,40.58990637],[-3.69627326,40.58994115],[-3.69598871,40.59041942],[-3.69569526,40.59095183],[-3.69561175,40.59109541],[-3.6954944,40.59129715],[-3.69537242,40.59150814],[-3.69513794,40.59191369],[-3.69482948,40.59248311],[-3.69444971,40.59312232],[-3.69443888,40.593141],[-3.69387841,40.59410952],[-3.6932992,40.59512197],[-3.69254941,40.59645434],[-3.69245881,40.59660765],[-3.69231592,40.59684941],[-3.69191989,40.59751937],[-3.69178495,40.5979611],[-3.69169463,40.59825671],[-3.691681,40.59829697],[-3.69167993,40.59830018],[-3.69162972,40.59844813],[-3.69145373,40.59896715],[-3.69115666,40.59984006],[-3.69064312,40.60128184],[-3.69018785,40.60208672],[-3.69013237,40.60218486],[-3.68974227,40.60287362],[-3.68931701,40.60362441],[-3.68905859,40.60408067],[-3.68893545,40.60429823],[-3.68886475,40.60441649],[-3.68879119,40.60453953],[-3.68842818,40.60514657],[-3.68841166,40.60517419],[-3.68749797,40.60670221],[-3.68714539,40.60701513],[-3.68667988,40.60738365],[-3.68595536,40.60796901],[-3.68573278,40.60815105],[-3.68537511,40.60844361],[-3.68524088,40.60852581],[-3.68517887,40.60856379],[-3.68500974,40.60866739],[-3.68486907,40.6087323],[-3.68408029,40.6090963],[-3.68315235,40.60943075],[-3.6831449,40.60943343],[-3.6825658,40.60964211],[-3.68256536,40.60964228],[-3.68250209,40.60966508],[-3.68188793,40.60993675],[-3.68188582,40.60993768],[-3.68121822,40.61023299],[-3.67985183,40.61083021],[-3.67966485,40.61092049],[-3.67957984,40.61098865],[-3.67937286,40.61115462],[-3.67922602,40.61128273],[-3.67909631,40.61139589],[-3.67887767,40.61163315],[-3.67874119,40.61179433],[-3.67853652,40.6120361],[-3.67826517,40.61234498],[-3.67714484,40.61362012],[-3.67692218,40.61387362],[-3.67691862,40.61387768],[-3.67684564,40.61396076],[-3.67672177,40.61410179],[-3.6767018,40.61412446],[-3.67668761,40.61414054],[-3.6766807,40.61414864],[-3.67591299,40.61504149],[-3.67591127,40.61504351],[-3.67576199,40.61521713],[-3.67546309,40.61556476],[-3.675324,40.61572175],[-3.67532283,40.61572312],[-3.67512293,40.61594875],[-3.67499542,40.61607921],[-3.67499188,40.61608283],[-3.67486785,40.61620966],[-3.67481158,40.61625689],[-3.6747025,40.61634845],[-3.67445936,40.61649853],[-3.6743491,40.61655203],[-3.67423222,40.61660873],[-3.67423068,40.61660946],[-3.67420237,40.6166232],[-3.67420232,40.61662322],[-3.67418871,40.61662981],[-3.67401712,40.61669954],[-3.67401097,40.61670205],[-3.6740102,40.61670227],[-3.6738943,40.61673616],[-3.67372989,40.61678423],[-3.67357721,40.61682889],[-3.67318031,40.61695201],[-3.67317169,40.61695468],[-3.67316745,40.61695601],[-3.67303453,40.61699775],[-3.67302855,40.61699968],[-3.67282409,40.61706389],[-3.67246104,40.61716149],[-3.672461,40.6171615],[-3.67245978,40.61716238],[-3.67204489,40.61726823],[-3.67203164,40.61727161],[-3.67201177,40.61727671],[-3.6715109,40.61739534],[-3.67145033,40.61740969],[-3.67125232,40.61747032],[-3.67047449,40.61783789],[-3.66990869,40.61811492],[-3.66990653,40.61811598],[-3.66935921,40.61838395],[-3.66682691,40.61962202],[-3.66680459,40.61963295],[-3.66679917,40.61963563],[-3.66677118,40.61968596],[-3.66653547,40.620111],[-3.66680984,40.62156344],[-3.66681001,40.62156436],[-3.66685192,40.62175464],[-3.66690192,40.62198134],[-3.66692876,40.62210318],[-3.66693364,40.62212536],[-3.66703411,40.62258106],[-3.66726441,40.62328108],[-3.66730594,40.62340738],[-3.6675805,40.62398535],[-3.66812957,40.62514131],[-3.6682362,40.62533479],[-3.66826493,40.62538695],[-3.66839082,40.62561544],[-3.66845475,40.62580419],[-3.66851391,40.62597871],[-3.66858211,40.62701756],[-3.66858219,40.6270188],[-3.66852779,40.62749106],[-3.66843309,40.62831335],[-3.66841582,40.62853594],[-3.66841572,40.628537],[-3.66840946,40.62861749],[-3.6683926,40.62883429],[-3.66839119,40.62885321],[-3.66839032,40.62885481],[-3.66839029,40.62885486],[-3.66797532,40.62960154],[-3.66734283,40.63104388],[-3.66723387,40.63122847],[-3.66723183,40.63123191],[-3.66723168,40.63123217],[-3.66659632,40.63230848],[-3.66649404,40.63246511],[-3.66634107,40.63270095],[-3.66596328,40.63332025],[-3.66552324,40.63403894],[-3.6650676,40.63470371],[-3.6644028,40.63552731],[-3.66371282,40.63631052],[-3.66277211,40.63733392],[-3.66227747,40.63791331],[-3.6619788,40.63891949],[-3.66184316,40.63925788],[-3.66177801,40.63942063],[-3.65923934,40.64140802],[-3.65923931,40.64140805],[-3.65826085,40.64217483],[-3.65717374,40.64257658],[-3.65613149,40.6429626],[-3.65592494,40.64324843],[-3.65576171,40.64330534],[-3.65568325,40.64333358],[-3.65506751,40.6432185],[-3.65502837,40.64321124],[-3.65502299,40.6432102],[-3.65304673,40.64284378],[-3.65287593,40.64281211],[-3.65205778,40.6426604],[-3.65205774,40.64266039],[-3.64876432,40.64146273],[-3.6485114,40.64126144],[-3.64591244,40.63917695],[-3.64453873,40.63801797],[-3.64444953,40.63801979],[-3.64423319,40.63802624],[-3.64243204,40.63808015],[-3.6402138,40.63848072],[-3.63903888,40.63840574],[-3.63888848,40.63839617],[-3.63818937,40.6379766],[-3.63772401,40.63769539],[-3.63741878,40.63742231],[-3.63725161,40.637213],[-3.63688501,40.63675593],[-3.63685602,40.63674265],[-3.63680301,40.63671852],[-3.6363085,40.63506905],[-3.63578495,40.6345741],[-3.63578222,40.63457151],[-3.63467603,40.6335276],[-3.63381434,40.63206847],[-3.63297102,40.63064243],[-3.63172318,40.62956651],[-3.6311614,40.62908298],[-3.63092762,40.62885906],[-3.63068246,40.62868156],[-3.63019301,40.62832882],[-3.62997487,40.62788245],[-3.62971929,40.62736116],[-3.6296525,40.62680387],[-3.62965238,40.626803],[-3.63024135,40.62583672],[-3.62996348,40.62516352],[-3.62943697,40.62382415],[-3.62929819,40.6234717],[-3.62885269,40.62233898],[-3.62885288,40.62233841],[-3.62885279,40.62233812],[-3.62950181,40.62060955],[-3.62950182,40.62060952],[-3.62864049,40.61936278],[-3.6286052,40.61811702],[-3.62836623,40.61777338],[-3.62836275,40.61776838],[-3.62822883,40.61757675],[-3.62755118,40.61721108],[-3.62693039,40.61687662],[-3.62583193,40.61675194],[-3.62583166,40.61675191],[-3.62578861,40.61674593],[-3.62578804,40.61674586],[-3.62576919,40.61674365],[-3.62564987,40.61672965],[-3.62539184,40.61670027],[-3.62454686,40.61661472],[-3.62386722,40.6165058],[-3.62349007,40.61637448],[-3.62329677,40.616281],[-3.6230958,40.61618559],[-3.62265534,40.61597626],[-3.62249205,40.61586002],[-3.62245365,40.61582271],[-3.62236752,40.61574123],[-3.6222346,40.61561547],[-3.62201689,40.61539285],[-3.62201377,40.61538967],[-3.62186313,40.61520577],[-3.6217654,40.61502418],[-3.62165026,40.61481235],[-3.62137815,40.61428138],[-3.6212128,40.61397137],[-3.62076109,40.61312618],[-3.62058294,40.61278928],[-3.62057484,40.61277462],[-3.62049645,40.61263392],[-3.61987235,40.61200574],[-3.61983795,40.61198553],[-3.61976906,40.61194684],[-3.61955859,40.61186406],[-3.6195558,40.61186298],[-3.61941877,40.61181027],[-3.61858822,40.61149056],[-3.61857764,40.61148649],[-3.61852674,40.61146698],[-3.61849072,40.61145355],[-3.61800261,40.61127251],[-3.61797276,40.61108258],[-3.61797267,40.61108197],[-3.61789316,40.61057573],[-3.61788555,40.61052722],[-3.61788293,40.610511],[-3.61787583,40.610466],[-3.61786594,40.61040593],[-3.61785451,40.61033732],[-3.61785448,40.61033628],[-3.61785435,40.61033549],[-3.61785233,40.61028524],[-3.61784846,40.61019318],[-3.61784861,40.61019258],[-3.61784863,40.61019252],[-3.61784856,40.61019136],[-3.61790201,40.60997489],[-3.61804171,40.60962282],[-3.61830761,40.60902332],[-3.61806161,40.60868455],[-3.61792498,40.60849733],[-3.61749738,40.60794259],[-3.61675987,40.60698735],[-3.61676039,40.60698644],[-3.61675968,40.60698553],[-3.61686498,40.60679724],[-3.61686662,40.60679427],[-3.6169087,40.60671809],[-3.61700414,40.6064248],[-3.61700683,40.6064072],[-3.61701049,40.60638062],[-3.61704349,40.60616919],[-3.61704989,40.60612816],[-3.61706814,40.60598631],[-3.61709502,40.60577704],[-3.61709502,40.60577698],[-3.6170309,40.60535533],[-3.61693262,40.60494413],[-3.61674689,40.60428927],[-3.61646613,40.60369689],[-3.61612979,40.60298901],[-3.61613021,40.60298814],[-3.61612977,40.6029872],[-3.61650678,40.60221553],[-3.61651231,40.6022042],[-3.6165613,40.60210382],[-3.61635647,40.60152835],[-3.61569099,40.60096553],[-3.6153403,40.60066983],[-3.61523758,40.60066051],[-3.61518507,40.60065621],[-3.6150305,40.60064175],[-3.61441053,40.60058558],[-3.61345124,40.60011678],[-3.61305566,40.5998982],[-3.61259227,40.59975771],[-3.61174734,40.59950331],[-3.6111962,40.59912999],[-3.6106389,40.59875421],[-3.60884079,40.59844387],[-3.60857685,40.59817502],[-3.60850705,40.59810391],[-3.60845033,40.59804775],[-3.60799001,40.59757717],[-3.6079593,40.59754583],[-3.60786784,40.59747783],[-3.60694205,40.5967899],[-3.60689763,40.59678115],[-3.60584155,40.59655696],[-3.60533977,40.59645149],[-3.60497508,40.5960615],[-3.60472034,40.59578807],[-3.60474484,40.59570986],[-3.60478678,40.59557514],[-3.60485921,40.59534259],[-3.60491559,40.59516092],[-3.60486772,40.59472808],[-3.60482982,40.59438669],[-3.60482336,40.59432876],[-3.60481921,40.59429206],[-3.60424677,40.59371849],[-3.60407207,40.59357634],[-3.60378463,40.59334407],[-3.60331954,40.5929684],[-3.60320698,40.59292388],[-3.60275581,40.59274554],[-3.60225307,40.59254873],[-3.60212289,40.59249537],[-3.60198501,40.59241227],[-3.60196275,40.5923958],[-3.60196245,40.59239558],[-3.60194429,40.59238368],[-3.6019266,40.59236911],[-3.60191723,40.59236218],[-3.60186686,40.59228137],[-3.6018403,40.59222795],[-3.60182367,40.59219512],[-3.60181457,40.59216814],[-3.60181075,40.59215506],[-3.6018053,40.59213845],[-3.6017922,40.59198359],[-3.60185453,40.59165378],[-3.60198722,40.59095107],[-3.60229332,40.5901612],[-3.60292272,40.58910388],[-3.60298025,40.58900899],[-3.60336085,40.58875026],[-3.60361589,40.58865432],[-3.6039275,40.58854046],[-3.60429129,40.58840576],[-3.60506314,40.58777289],[-3.60590658,40.58605502],[-3.60633616,40.58517993],[-3.60633844,40.5851753],[-3.60637623,40.58515234],[-3.60640711,40.58513354],[-3.60848549,40.58387039],[-3.60875639,40.58372192],[-3.60904988,40.58356108],[-3.60938331,40.58336771],[-3.60938743,40.58336532],[-3.60945373,40.58332685],[-3.6095036,40.58329788],[-3.60960409,40.58323953],[-3.61025699,40.58286074],[-3.61189554,40.5819101],[-3.61503276,40.58090639],[-3.61556231,40.58073697],[-3.61556894,40.58073485],[-3.61635951,40.58048192],[-3.62039244,40.57730367],[-3.62040781,40.5772916],[-3.62041944,40.57728246],[-3.6213097,40.57658437],[-3.62137084,40.57652921],[-3.62137162,40.5765285],[-3.62151358,40.57640036],[-3.62176888,40.5761522],[-3.62191932,40.57600338],[-3.62192446,40.5759983],[-3.62210136,40.57582336],[-3.62239835,40.57559554],[-3.62298595,40.57514477],[-3.62438502,40.57407344],[-3.62500254,40.57360057],[-3.62630136,40.57351702],[-3.62694417,40.57352699],[-3.6272077,40.57354351],[-3.62792296,40.57358836],[-3.62822591,40.57364166],[-3.62834689,40.57367252],[-3.62835284,40.57367403],[-3.62859655,40.57373607],[-3.62877057,40.57377745],[-3.62877952,40.57378197],[-3.62899263,40.57388975],[-3.62900927,40.57389896],[-3.62903675,40.57391415],[-3.62953676,40.5741907],[-3.62963506,40.57424505],[-3.62963628,40.57424572],[-3.62964017,40.57424764],[-3.62982502,40.57433839],[-3.63036784,40.57452012],[-3.63062754,40.57462594],[-3.63091962,40.57477837],[-3.63100637,40.57482455],[-3.63101013,40.57482655],[-3.63109889,40.57487378],[-3.63113678,40.57487896],[-3.63131135,40.57485007],[-3.6318039,40.57471229],[-3.63235517,40.57453449],[-3.63251452,40.5745138],[-3.6325146,40.5745138],[-3.63290775,40.57449726],[-3.63318082,40.57448926],[-3.63318792,40.57448905],[-3.63373808,40.5744729],[-3.63416952,40.57445958],[-3.63417305,40.57445947],[-3.6343759,40.57445321],[-3.63476952,40.57447802],[-3.63530164,40.57452377],[-3.63624644,40.57463962],[-3.6362526,40.57464037],[-3.63719299,40.57475574],[-3.63795768,40.57487193],[-3.6388839,40.57501269],[-3.63923463,40.57506598],[-3.6392385,40.57506656],[-3.63924117,40.57506696],[-3.63925353,40.57506899],[-3.63960672,40.57512711],[-3.63976667,40.57517939],[-3.64014226,40.57528264],[-3.64104318,40.57560562],[-3.64138703,40.57573434],[-3.64146398,40.57577713],[-3.64146522,40.57577781],[-3.64161628,40.57586185],[-3.64187975,40.57601062],[-3.64214726,40.57616167],[-3.64235837,40.57627816],[-3.64235948,40.57627877],[-3.642582,40.57640155],[-3.64266991,40.5764497],[-3.64313827,40.57655138],[-3.6433916,40.57660635],[-3.64339442,40.57660695],[-3.64339446,40.57660696],[-3.64480293,40.576864],[-3.64503591,40.57685609],[-3.64550213,40.57684026],[-3.64598213,40.5768727],[-3.64650916,40.57687968],[-3.64702217,40.57690748],[-3.64718352,40.57691809],[-3.64718573,40.57691823],[-3.64748918,40.57693819],[-3.64799907,40.57698504],[-3.64818217,40.57700183],[-3.64857921,40.57704869],[-3.64858231,40.57704905],[-3.64863626,40.57705545],[-3.6492187,40.5771241],[-3.64924743,40.57712752],[-3.64925056,40.57712789],[-3.64960392,40.57716955],[-3.649751,40.57720541],[-3.64975405,40.57720616],[-3.64992689,40.57724825],[-3.65016822,40.57730708],[-3.65017115,40.57730782],[-3.65017118,40.57730783],[-3.65017678,40.57731146],[-3.65032459,40.57740782],[-3.65077483,40.5777747],[-3.65090842,40.57791269],[-3.65094993,40.57797146],[-3.65095211,40.57797454],[-3.65102702,40.57808047],[-3.65121671,40.57841367],[-3.65121833,40.57841652],[-3.65145854,40.57883841],[-3.65174183,40.57933497],[-3.65174828,40.57934629],[-3.651997,40.57978216],[-3.65214201,40.58002486],[-3.65214537,40.58003048],[-3.65228887,40.58027063],[-3.65251249,40.58066211],[-3.65251613,40.5806685],[-3.65276122,40.58109766],[-3.65288957,40.58141672],[-3.65297022,40.58165178],[-3.65297564,40.58166756],[-3.65309752,40.58202278],[-3.65339465,40.58284619],[-3.65344718,40.58299194],[-3.65347578,40.58308119],[-3.65347951,40.58309287],[-3.65362028,40.58353329],[-3.65379888,40.58410028],[-3.65380903,40.58413249],[-3.65389706,40.5844119],[-3.654298,40.58554022],[-3.65437624,40.58577314],[-3.65438251,40.58579181],[-3.65447565,40.58606899],[-3.65460729,40.58636097],[-3.65494962,40.58705095],[-3.65496608,40.58708369],[-3.65516848,40.58748628],[-3.65521112,40.58757106],[-3.65528561,40.5876918],[-3.65528902,40.58769733],[-3.65529764,40.58771114],[-3.65531523,40.58773404],[-3.65563505,40.58814887],[-3.65575836,40.58831027],[-3.6559195,40.58849176],[-3.65592084,40.58849326],[-3.65603952,40.58862694],[-3.65614465,40.58874535],[-3.65619726,40.58880461],[-3.65624943,40.58886336],[-3.65658618,40.58910288],[-3.65663952,40.58913565],[-3.65664005,40.58913597],[-3.65664783,40.58914076],[-3.65693333,40.58931626],[-3.65751295,40.58964592],[-3.65754163,40.5896623],[-3.65754173,40.58966235],[-3.65802312,40.58994243],[-3.6584737,40.59021827],[-3.65895409,40.59052274],[-3.65909275,40.59062033],[-3.65909295,40.59062047],[-3.65937058,40.59081586],[-3.65963514,40.59102657],[-3.65978267,40.59114414],[-3.66016195,40.59149688],[-3.66017115,40.59150354],[-3.66017141,40.59150372],[-3.66017867,40.59150889],[-3.66031248,40.59160488],[-3.66031525,40.59160686],[-3.66039999,40.59166762],[-3.66079954,40.59182042],[-3.66080463,40.59182235],[-3.66083188,40.59183276],[-3.66117165,40.59192808],[-3.66139813,40.59199165],[-3.66139819,40.59199166],[-3.66140401,40.59199318],[-3.6617892,40.59209485],[-3.66203334,40.59214659],[-3.66214922,40.59217117],[-3.6626913,40.59225363],[-3.66323228,40.59230434],[-3.66324368,40.59230541],[-3.66324883,40.59230559],[-3.66376973,40.5923231],[-3.66394473,40.59232392],[-3.66394647,40.59232393],[-3.66403094,40.5923243],[-3.66451071,40.59232242],[-3.66474586,40.59232152],[-3.66498933,40.5923206],[-3.66512507,40.59231715],[-3.66512625,40.59231712],[-3.66526342,40.5923136],[-3.66580817,40.59227298],[-3.66581169,40.59227271],[-3.66608769,40.59225214],[-3.6663984,40.59221848],[-3.66640745,40.5922175],[-3.66702734,40.59215031],[-3.66711806,40.59213678],[-3.66711917,40.59213661],[-3.66720907,40.59212317],[-3.6673175,40.59208827],[-3.6673225,40.59208614],[-3.66752934,40.59199878],[-3.66910935,40.5912897],[-3.66914653,40.59127152],[-3.67000902,40.59085025],[-3.67037026,40.59068226],[-3.67037524,40.59067994],[-3.67074652,40.59050728],[-3.67160676,40.59010613],[-3.67162144,40.59009929],[-3.67205335,40.58989785],[-3.67272244,40.58956692],[-3.67333977,40.5892616],[-3.6741429,40.58886143]]]],"type":"MultiPolygon"},"properties":{"cusec":"2807908004"},"type":"Feature"},{"geometry":{"coordinates":[[[[-3.70502697,40.47760931],[-3.70490728,40.47726767],[-3.70472874,40.47676423],[-3.70469726,40.47667885],[-3.70514061,40.4765906],[-3.70524215,40.47657195],[-3.70577079,40.47646513],[-3.70613424,40.47639083],[-3.70666761,40.47627497],[-3.70719434,40.47615913],[-3.70722737,40.47624904],[-3.70745134,40.47686925],[-3.70752024,40.47707607],[-3.70753137,40.47712102],[-3.70703225,40.4772277],[-3.70654549,40.47732073],[-3.7064782,40.47730315],[-3.70610598,40.47738649],[-3.70606253,40.47742729],[-3.70552905,40.4775657],[-3.70510113,40.47764936],[-3.70502697,40.47760931]]]],"type":"MultiPolygon"},"properties":{"cusec":"2807908088"},"type":"Feature"},{"geometry":{"coordinates":[[[[-3.67454798,40.49985723],[-3.67398255,40.49975395],[-3.67331354,40.50029893],[-3.67244585,40.49971046],[-3.67117938,40.5007671],[-3.67026887,40.5001539],[-3.67219601,40.49852693],[-3.67322729,40.49767996],[-3.67383303,40.4971346],[-3.67443963,40.49904313],[-3.67462011,40.49961097],[-3.67454798,40.49985723]]]],"type":"MultiPolygon"},"properties":{"cusec":"2807908160"},"type":"Feature"},{"geometry":{"coordinates":[[[[-3.69258405,40.51067751],[-3.69360792,40.50948513],[-3.69436956,40.50856346],[-3.69439518,40.50853362],[-3.69565915,40.5091541],[-3.69681047,40.50974704],[-3.69590103,40.51083226],[-3.69504078,40.51187727],[-3.69258405,40.51067751]]]],"type":"MultiPolygon"},"properties":{"cusec":"2807908176"},"type":"Feature"},{"geometry":{"coordinates":[[[[-3.67117938,40.5007671],[-3.67244585,40.49971046],[-3.67331354,40.50029893],[-3.67398255,40.49975395],[-3.67454798,40.49985723],[-3.67454796,40.49985732],[-3.67315051,40.50462825],[-3.67048384,40.50271591],[-3.67163392,40.50174289],[-3.67206337,40.50136244],[-3.67117938,40.5007671]]]],"type":"MultiPolygon"},"properties":{"cusec":"2807908192"},"type":"Feature"},{"geometry":{"coordinates":[[[[-3.69258405,40.51067751],[-3.69504078,40.51187727],[-3.69503611,40.51188294],[-3.69548767,40.51212017],[-3.69679532,40.51275167],[-3.69680793,40.51277477],[-3.6969756,40.51291333],[-3.69618007,40.51314649],[-3.69344434,40.51384806],[-3.69103998,40.51444608],[-3.68913324,40.51493958],[-3.68813791,40.51514851],[-3.68738999,40.51516564],[-3.68645791,40.51505698],[-3.68557481,40.51485921],[-3.68514028,40.5146334],[-3.68473629,40.51414097],[-3.68466387,40.51355776],[-3.68470652,40.51284699],[-3.68486759,40.51233852],[-3.68516138,40.5118039],[-3.68563827,40.51129356],[-3.68621683,40.51097294],[-3.68630039,40.51090096],[-3.6864287,40.51084258],[-3.68672244,40.51070029],[-3.68683354,40.51064647],[-3.68780704,40.51014968],[-3.68864875,40.50975281],[-3.68947858,40.5091668],[-3.6895,40.50915306],[-3.6915347,40.5101751],[-3.69258007,40.51068215],[-3.69258405,40.51067751]]]],"type":"MultiPolygon"},"properties":{"cusec":"2807908193"},"type":"Feature"},{"geometry":{"coordinates":[[[[-3.73489245,40.39847272],[-3.73708467,40.39675606],[-3.73739446,40.3964613],[-3.73752662,40.39632082],[-3.73786225,40.39593128],[-3.73789825,40.39589051],[-3.73791745,40.39586337],[-3.73795127,40.3958226],[-3.73796398,40.3958045],[-3.73801484,40.39574113],[-3.73805296,40.39569133],[-3.73805867,40.39567776],[-3.73808115,40.39564611],[-3.73810005,40.39561896],[-3.73816395,40.39550591],[-3.73828442,40.39530694],[-3.7383748,40.39515325],[-3.7384334,40.39508979],[-3.7385003,40.39501279],[-3.73851694,40.39498564],[-3.73859257,40.39486355],[-3.73864252,40.39478216],[-3.7392244,40.3950262],[-3.73971262,40.39522578],[-3.7393886,40.39570079],[-3.73901802,40.39622574],[-3.73867184,40.39672791],[-3.73865474,40.39675056],[-3.73841451,40.39710343],[-3.73848273,40.39711654],[-3.73871183,40.39711958],[-3.73894545,40.39713161],[-3.73891559,40.39784352],[-3.73845303,40.39783296],[-3.73844603,40.39800414],[-3.73851013,40.39800823],[-3.73849971,40.39826506],[-3.73831721,40.39827976],[-3.738071,40.39829484],[-3.73784359,40.3983098],[-3.73751898,40.39832539],[-3.73713404,40.39834588],[-3.73688083,40.39835648],[-3.73622233,40.3983832],[-3.73566874,40.39840473],[-3.7353679,40.39840664],[-3.73512082,40.39844426],[-3.73489245,40.39847272]]]],"type":"MultiPolygon"},"properties":{"cusec":"2807910003"},"type":"Feature"},{"geometry":{"coordinates":[[[[-3.7317449,40.37348619],[-3.73268048,40.373572],[-3.73293881,40.37359289],[-3.73389595,40.3736721],[-3.73389929,40.37367238],[-3.73283006,40.37483684],[-3.73197644,40.37552693],[-3.73192266,40.37557068],[-3.73073522,40.37525657],[-3.73171351,40.3743589],[-3.73115154,40.37398107],[-3.7317449,40.37348619]]]],"type":"MultiPolygon"},"properties":{"cusec":"2807911182"},"type":"Feature"},{"geometry":{"coordinates":[[[[-3.7317449,40.37348619],[-3.73115154,40.37398107],[-3.73171351,40.3743589],[-3.73073522,40.37525657],[-3.73192266,40.37557068],[-3.7315747,40.37585381],[-3.73147582,40.37593549],[-3.72766813,40.37532885],[-3.7276854,40.37531854],[-3.72920105,40.3744138],[-3.72919521,40.37438682],[-3.72919221,40.37410752],[-3.7294367,40.37335824],[-3.72944834,40.37328163],[-3.72999737,40.37333218],[-3.73130209,40.37344558],[-3.7317449,40.37348619]]]],"type":"MultiPolygon"},"properties":{"cusec":"2807911201"},"type":"Feature"},{"geometry":{"coordinates":[[[[-3.6640894,40.38630231],[-3.66454724,40.38586961],[-3.66469329,40.38582348],[-3.66460801,40.38570956],[-3.66556624,40.38454486],[-3.66571834,40.38472415],[-3.66583291,40.38484962],[-3.66605585,40.38509159],[-3.66606961,40.385105],[-3.66608815,40.38511842],[-3.66617896,40.38518094],[-3.66613982,40.38520821],[-3.66609283,40.38525804],[-3.66602723,40.385362],[-3.66596521,40.38546148],[-3.66593833,40.38549317],[-3.66579446,40.38565615],[-3.66519061,40.38636234],[-3.66524654,40.38639353],[-3.66565341,40.38662096],[-3.66573227,40.3866655],[-3.66581587,40.38671008],[-3.66614906,40.38689738],[-3.66618204,40.38695125],[-3.66620972,40.38700065],[-3.66651257,40.38717004],[-3.6665544,40.38722838],[-3.6665103,40.38727369],[-3.66637971,40.38740057],[-3.66600377,40.38777211],[-3.66563371,40.38813908],[-3.6655983,40.38817534],[-3.66554141,40.38822973],[-3.66532697,40.38843816],[-3.66478988,40.38897277],[-3.66472387,40.38900019],[-3.664643,40.38901417],[-3.66455161,40.38873993],[-3.66453935,40.38869044],[-3.66446947,40.38839801],[-3.66443911,40.38827207],[-3.66439803,40.38809664],[-3.66427686,40.38756579],[-3.66426528,40.38751183],[-3.66426845,40.38742168],[-3.66423742,40.38718764],[-3.66419748,40.38694912],[-3.66416429,40.38675563],[-3.66411189,40.38643611],[-3.6640894,40.38630231]]]],"type":"MultiPolygon"},"properties":{"cusec":"2807913056"},"type":"Feature"},{"geometry":{"coordinates":[[[[-3.6628588,40.38856211],[-3.66313305,40.38819942],[-3.66233198,40.38788937],[-3.66324221,40.38661604],[-3.66226493,40.38618721],[-3.66226664,40.38618541],[-3.66231991,40.38613553],[-3.66286121,40.38542522],[-3.66292554,40.38533929],[-3.6631771,40.38501349],[-3.66357552,40.38449319],[-3.66362095,40.38443436],[-3.66363618,40.38441177],[-3.66373991,40.38439765],[-3.66383641,40.38488811],[-3.66389599,40.38518506],[-3.6639585,40.38551353],[-3.66400112,40.38577003],[-3.66404652,40.38604457],[-3.6640786,40.38623808],[-3.66411189,40.38643611],[-3.66416429,40.38675563],[-3.66419748,40.38694912],[-3.66423742,40.38718764],[-3.66426845,40.38742168],[-3.66426528,40.38751183],[-3.66427686,40.38756579],[-3.66439803,40.38809664],[-3.66443911,40.38827207],[-3.66446947,40.38839801],[-3.66453935,40.38869044],[-3.66455161,40.38873993],[-3.664643,40.38901417],[-3.66471958,40.38923442],[-3.66467137,40.38923926],[-3.66463561,40.3892349],[-3.66458535,40.3892172],[-3.66447053,40.38918184],[-3.6642134,40.3890932],[-3.66414397,40.38907558],[-3.66406726,40.38906253],[-3.66401933,40.38904928],[-3.66399562,40.38904038],[-3.66373908,40.38893828],[-3.66328992,40.38874716],[-3.66290682,40.38858265],[-3.6628588,40.38856211]]]],"type":"MultiPolygon"},"properties":{"cusec":"2807913206"},"type":"Feature"},{"geometry":{"coordinates":[[[[-3.66556624,40.38454486],[-3.66460801,40.38570956],[-3.66469329,40.38582348],[-3.66454724,40.38586961],[-3.6640894,40.38630231],[-3.6640786,40.38623808],[-3.66404652,40.38604457],[-3.66400112,40.38577003],[-3.6639585,40.38551353],[-3.66389599,40.38518506],[-3.66383641,40.38488811],[-3.66373991,40.38439765],[-3.66366891,40.38402869],[-3.6636542,40.38395671],[-3.66363532,40.38387124],[-3.66361761,40.38379023],[-3.66359721,40.38370027],[-3.66354503,40.38348435],[-3.66349525,40.3832504],[-3.66347034,40.38319196],[-3.66343926,40.38309758],[-3.66349336,40.38302514],[-3.66359194,40.38289845],[-3.66386904,40.38251403],[-3.66393451,40.3824686],[-3.66417539,40.38266992],[-3.66418954,40.38268333],[-3.66433825,40.38287167],[-3.66437082,40.38292556],[-3.66454525,40.38317682],[-3.66478053,40.38351778],[-3.66512596,40.38401582],[-3.6651577,40.38406069],[-3.66517524,40.38408308],[-3.66533841,40.38427587],[-3.6655358,40.38450897],[-3.66556624,40.38454486]]]],"type":"MultiPolygon"},"properties":{"cusec":"2807913218"},"type":"Feature"},{"geometry":{"coordinates":[[[[-3.66226493,40.38618721],[-3.66324221,40.38661604],[-3.66233198,40.38788937],[-3.66313305,40.38819942],[-3.6628588,40.38856211],[-3.66269903,40.38849378],[-3.66242765,40.38837821],[-3.66214171,40.38827622],[-3.66167436,40.38811223],[-3.66148809,40.38804574],[-3.66139727,40.38801469],[-3.66098823,40.38786839],[-3.66110818,40.38770554],[-3.66133414,40.38739797],[-3.6614534,40.38723959],[-3.66173184,40.38687313],[-3.66219926,40.38625785],[-3.66222363,40.38623068],[-3.66226493,40.38618721]]]],"type":"MultiPolygon"},"properties":{"cusec":"2807913219"},"type":"Feature"},{"geometry":{"coordinates":[[[[-3.6332817,40.40125757],[-3.63395228,40.40027192],[-3.63400506,40.40028512],[-3.63400514,40.40029414],[-3.63620334,40.40093526],[-3.63603884,40.40118392],[-3.63486582,40.40293814],[-3.63452157,40.40345353],[-3.63431888,40.40375645],[-3.633932,40.40377209],[-3.63309203,40.40378119],[-3.63228492,40.40379006],[-3.63327756,40.40227563],[-3.63322214,40.40221285],[-3.632833,40.40207084],[-3.63270736,40.40202197],[-3.63320599,40.40131653],[-3.6332817,40.40125757]]]],"type":"MultiPolygon"},"properties":{"cusec":"2807914005"},"type":"Feature"},{"geometry":{"coordinates":[[[[-3.6523277,40.49631018],[-3.65206719,40.49656155],[-3.65186283,40.49673909],[-3.65172059,40.49688291],[-3.65154172,40.49711274],[-3.65139976,40.49728516],[-3.65126432,40.49748615],[-3.65114729,40.49765366],[-3.65105533,40.49783057],[-3.65098205,40.4980026],[-3.65091557,40.49823181],[-3.65084308,40.49848488],[-3.65081379,40.49868527],[-3.6533112,40.4988083],[-3.65334654,40.49930515],[-3.65374166,40.50012288],[-3.65448474,40.50075748],[-3.65546318,40.50119052],[-3.65658826,40.50128901],[-3.65767318,40.50111122],[-3.6588782,40.5003488],[-3.66048129,40.50132201],[-3.6604342,40.5013767],[-3.66040717,40.50140837],[-3.66019312,40.50165734],[-3.66006093,40.50182928],[-3.65984118,40.50209631],[-3.65973875,40.50221852],[-3.65963952,40.50233617],[-3.6595641,40.50242671],[-3.6594173,40.50261221],[-3.65934335,40.50270723],[-3.65931963,40.5027344],[-3.65929597,40.50276604],[-3.65923219,40.50284297],[-3.65912889,40.50298774],[-3.65909134,40.50303749],[-3.65902011,40.50314149],[-3.65893317,40.50326812],[-3.65892883,40.50327714],[-3.65884233,40.50340828],[-3.65883656,40.5034218],[-3.65881802,40.50344896],[-3.65880899,40.50346703],[-3.65879624,40.50348512],[-3.65878505,40.50350772],[-3.65870987,40.50362978],[-3.65865299,40.50372916],[-3.65862903,40.50376985],[-3.65861997,40.50378793],[-3.65858445,40.50385117],[-3.65855593,40.50395497],[-3.65851837,40.50403176],[-3.65829805,40.504551],[-3.65827453,40.50463221],[-3.65825138,40.50471796],[-3.65821902,40.50484424],[-3.65818808,40.50499759],[-3.65815424,40.50519597],[-3.65813704,40.5053177],[-3.6581217,40.5054529],[-3.65811561,40.50550699],[-3.65810582,40.50563767],[-3.65809406,40.50582693],[-3.6580914,40.50589903],[-3.65808841,40.50608372],[-3.65809104,40.50631341],[-3.6580972,40.50649356],[-3.65811613,40.50680877],[-3.65817682,40.50776786],[-3.65819324,40.50793897],[-3.65820204,40.50801099],[-3.65821148,40.50806952],[-3.65825381,40.50836654],[-3.65826525,40.5084791],[-3.65826827,40.50863674],[-3.65818439,40.50933992],[-3.6581853,40.50935412],[-3.65655739,40.50930277],[-3.65286049,40.50836359],[-3.65145178,40.50754237],[-3.65009775,40.50645897],[-3.64908279,40.5049591],[-3.6484405,40.50356621],[-3.64804648,40.50123368],[-3.64765437,40.49909752],[-3.64684178,40.49631662],[-3.64682686,40.49626554],[-3.64830864,40.49579902],[-3.64989885,40.49472093],[-3.65142326,40.49571608],[-3.65142799,40.49571185],[-3.6515133,40.49579639],[-3.6523148,40.49630203],[-3.6523277,40.49631018]]]],"type":"MultiPolygon"},"properties":{"cusec":"2807916114"},"type":"Feature"},{"geometry":{"coordinates":[[[[-3.61548269,40.48504074],[-3.61128403,40.48941541],[-3.61053756,40.48899896],[-3.60847715,40.48900982],[-3.60849738,40.49125032],[-3.60206287,40.49134966],[-3.60198739,40.48498835],[-3.61484183,40.48499603],[-3.61484661,40.48500367],[-3.61548269,40.48504074]]]],"type":"MultiPolygon"},"properties":{"cusec":"2807916124"},"type":"Feature"},{"geometry":{"coordinates":[[[[-3.61128352,40.48941512],[-3.61105834,40.48967293],[-3.61080568,40.49004134],[-3.61064628,40.49036635],[-3.61049437,40.49082958],[-3.61042212,40.49112553],[-3.61042377,40.49130668],[-3.61043191,40.49151639],[-3.61060594,40.49211615],[-3.61077786,40.49248232],[-3.61104963,40.49284319],[-3.61143411,40.49323684],[-3.61176743,40.49349727],[-3.61223808,40.49375221],[-3.61266428,40.49392634],[-3.61299648,40.49406283],[-3.61236652,40.49533324],[-3.61191131,40.49519388],[-3.61141039,40.49504398],[-3.61100989,40.49495075],[-3.60214683,40.4949604],[-3.60211062,40.49312036],[-3.60209163,40.49314069],[-3.60208422,40.49314839],[-3.60206287,40.49134966],[-3.60849738,40.49125032],[-3.60847715,40.48900982],[-3.61053756,40.48899896],[-3.61128352,40.48941512]]]],"type":"MultiPolygon"},"properties":{"cusec":"2807916131"},"type":"Feature"},{"geometry":{"coordinates":[[[[-3.6523277,40.49631018],[-3.65404276,40.49739211],[-3.65409207,40.49740642],[-3.65348512,40.49814116],[-3.65330315,40.49869519],[-3.6533112,40.4988083],[-3.65081379,40.49868527],[-3.65084308,40.49848488],[-3.65091557,40.49823181],[-3.65098205,40.4980026],[-3.65105533,40.49783057],[-3.65114729,40.49765366],[-3.65126432,40.49748615],[-3.65139976,40.49728516],[-3.65154172,40.49711274],[-3.65172059,40.49688291],[-3.65186283,40.49673909],[-3.65206719,40.49656155],[-3.6523277,40.49631018]]]],"type":"MultiPolygon"},"properties":{"cusec":"2807916135"},"type":"Feature"},{"geometry":{"coordinates":[[[[-3.61128403,40.48941541],[-3.61548269,40.48504074],[-3.61548421,40.48504083],[-3.61821286,40.48213354],[-3.62050733,40.48215873],[-3.62349168,40.48216174],[-3.62517756,40.48218124],[-3.62584765,40.48217761],[-3.6258643,40.48217752],[-3.62626624,40.48243278],[-3.62811201,40.48352876],[-3.62833478,40.48366234],[-3.62891567,40.48401065],[-3.63020962,40.48484264],[-3.63131424,40.48545635],[-3.63253269,40.48622199],[-3.63332349,40.48665624],[-3.63383625,40.48673924],[-3.63445979,40.48665001],[-3.63694842,40.48571147],[-3.63917757,40.48506989],[-3.64107244,40.48480374],[-3.64106434,40.48483355],[-3.64248848,40.48448739],[-3.64430438,40.48491415],[-3.64430834,40.48576399],[-3.64407102,40.48723192],[-3.64408293,40.48847914],[-3.64423963,40.48984893],[-3.64481095,40.49139459],[-3.64569218,40.49343193],[-3.64629826,40.49485403],[-3.64661305,40.49585286],[-3.64682686,40.49626554],[-3.64684178,40.49631662],[-3.64192721,40.49797566],[-3.63914036,40.49911618],[-3.63644846,40.49926187],[-3.63644561,40.49926573],[-3.6346935,40.49906441],[-3.6321637,40.49833459],[-3.629389,40.4981209],[-3.62637162,40.49867123],[-3.6245994,40.4988143],[-3.62362525,40.49881957],[-3.6236438,40.49409667],[-3.62364757,40.49313689],[-3.61800119,40.49297653],[-3.61800196,40.49301225],[-3.614195,40.49294],[-3.61417758,40.49102959],[-3.61128403,40.48941541]]]],"type":"MultiPolygon"},"properties":{"cusec":"2807916136"},"type":"Feature"},{"geometry":{"coordinates":[[[[-3.61236652,40.49533324],[-3.61299648,40.49406283],[-3.61266428,40.49392634],[-3.61223808,40.49375221],[-3.61176743,40.49349727],[-3.61143411,40.49323684],[-3.61104963,40.49284319],[-3.61077786,40.49248232],[-3.61060594,40.49211615],[-3.61043191,40.49151639],[-3.61042377,40.49130668],[-3.61042212,40.49112553],[-3.61049437,40.49082958],[-3.61064628,40.49036635],[-3.61080568,40.49004134],[-3.61105834,40.48967293],[-3.61128352,40.48941512],[-3.61417758,40.49102959],[-3.614195,40.49294],[-3.61417932,40.4929397],[-3.61421222,40.49557285],[-3.61358807,40.4955473],[-3.61303788,40.49547395],[-3.61246237,40.49536258],[-3.61236652,40.49533324]]]],"type":"MultiPolygon"},"properties":{"cusec":"2807916137"},"type":"Feature"},{"geometry":{"coordinates":[[[[-3.69264362,40.33612749],[-3.70133049,40.33599991],[-3.70128386,40.33390256],[-3.69258913,40.33407802],[-3.69258874,40.3340612],[-3.69257356,40.33340812],[-3.69255307,40.33266047],[-3.69254989,40.33252986],[-3.69254709,40.33243526],[-3.69248994,40.33022386],[-3.69248692,40.33010675],[-3.69246925,40.32941769],[-3.6924357,40.32890883],[-3.6924039,40.32780992],[-3.69236273,40.3265894],[-3.69233589,40.32579226],[-3.69234785,40.32559851],[-3.69234655,40.32554446],[-3.69234444,40.32537329],[-3.69233374,40.32511657],[-3.69232703,40.32485536],[-3.69231992,40.32466619],[-3.69231334,40.32441847],[-3.69230477,40.32415278],[-3.69230304,40.32409421],[-3.69229957,40.32393208],[-3.69229103,40.32367089],[-3.69228427,40.32340512],[-3.69228069,40.32338262],[-3.69226864,40.32302685],[-3.69225509,40.32260348],[-3.69223465,40.3219324],[-3.6922297,40.32180635],[-3.6922262,40.32168022],[-3.69222415,40.32162618],[-3.69221928,40.32154511],[-3.69221769,40.32142351],[-3.69221427,40.32130192],[-3.69220983,40.32115776],[-3.6922083,40.32107669],[-3.69220487,40.32099564],[-3.69220054,40.32089206],[-3.69219729,40.32079299],[-3.69219982,40.32053623],[-3.6922001,40.32052721],[-3.6921998,40.32052688],[-3.69220011,40.32052672],[-3.69220109,40.32052622],[-3.69220116,40.32052619],[-3.69248436,40.32038184],[-3.69302012,40.32010874],[-3.69313689,40.32018708],[-3.69319774,40.32022792],[-3.69351718,40.32044218],[-3.6941181,40.32084529],[-3.69606878,40.32215371],[-3.69616318,40.32221698],[-3.69617801,40.32221754],[-3.69619069,40.32221802],[-3.69622585,40.32221932],[-3.69626796,40.32222085],[-3.69637455,40.32222484],[-3.6979449,40.32228322],[-3.69962619,40.32234568],[-3.70137287,40.32223353],[-3.70185509,40.32220256],[-3.70312677,40.3221209],[-3.70701973,40.32282791],[-3.70804198,40.32301348],[-3.70805116,40.32301523],[-3.70805715,40.32301636],[-3.70830019,40.32306252],[-3.7092986,40.32325202],[-3.7094285,40.32327671],[-3.71007883,40.32340014],[-3.71219804,40.32348081],[-3.71254322,40.32349394],[-3.71254456,40.32349401],[-3.71255294,40.32354302],[-3.7125629,40.32360126],[-3.71276775,40.32479899],[-3.71284145,40.32522968],[-3.71286449,40.32536471],[-3.71290949,40.32562785],[-3.71362225,40.3267548],[-3.71373534,40.32693361],[-3.71375341,40.32696217],[-3.71405961,40.32744632],[-3.71444652,40.32805803],[-3.71460147,40.32813244],[-3.71635341,40.32897366],[-3.71641702,40.32900423],[-3.71651854,40.32905294],[-3.71983105,40.33064336],[-3.71996922,40.3307097],[-3.72017071,40.33080642],[-3.72029497,40.33090405],[-3.72138337,40.33175892],[-3.72252393,40.33265473],[-3.72267012,40.3327695],[-3.72267615,40.33277421],[-3.72272081,40.3328093],[-3.72282202,40.33288996],[-3.722529,40.33304495],[-3.72238317,40.33341076],[-3.72192325,40.33437309],[-3.72172683,40.33478872],[-3.72147841,40.33530381],[-3.72127219,40.33573303],[-3.72108074,40.33613514],[-3.72081831,40.33667729],[-3.72062398,40.33708845],[-3.72022692,40.33791077],[-3.72003512,40.33828129],[-3.7199636,40.33843944],[-3.71987859,40.33864267],[-3.71978044,40.33885947],[-3.71972174,40.33898148],[-3.71966326,40.33912146],[-3.71958468,40.33927514],[-3.71955846,40.33933835],[-3.71946733,40.33948305],[-3.71936935,40.33965037],[-3.71921889,40.33985848],[-3.71887966,40.34023898],[-3.71872955,40.34037506],[-3.71863143,40.34046125],[-3.71852683,40.34055201],[-3.71844847,40.34058851],[-3.71837015,40.34066107],[-3.71825272,40.34072484],[-3.7181876,40.34075682],[-3.71777182,40.34103867],[-3.71726508,40.34123548],[-3.71671083,40.34139661],[-3.71557838,40.34157475],[-3.71513569,40.34154826],[-3.71230287,40.34137873],[-3.71224299,40.34137502],[-3.71070738,40.34127983],[-3.71064976,40.34127626],[-3.70954301,40.34121041],[-3.7066004,40.34103529],[-3.70645279,40.34102718],[-3.70640147,40.34101397],[-3.70631896,40.34100549],[-3.70615755,40.34097941],[-3.70604956,40.34096208],[-3.70587208,40.34094513],[-3.70583008,40.34094086],[-3.70570599,40.3409326],[-3.70558673,40.34092882],[-3.70533821,40.34091235],[-3.70518288,40.34090877],[-3.70493956,40.34089675],[-3.70485006,40.34088831],[-3.7047176,40.34088456],[-3.70458991,40.34088085],[-3.70445744,40.34088166],[-3.70417665,40.34087436],[-3.70386764,40.34088074],[-3.70381838,40.34088104],[-3.70377867,40.34088578],[-3.70363516,40.34088665],[-3.70343154,40.34090143],[-3.70312129,40.34093483],[-3.70298829,40.34095363],[-3.70284578,40.34097706],[-3.70278593,40.34098642],[-3.7026593,40.34101421],[-3.70251129,40.34104213],[-3.7024757,40.34105137],[-3.70242728,40.34106517],[-3.70235641,40.34107909],[-3.70232817,40.34108829],[-3.70224932,40.34111129],[-3.70219314,40.34112514],[-3.70204863,40.34116657],[-3.70199618,40.34118491],[-3.70192763,40.34120332],[-3.70180923,40.34124909],[-3.7016996,40.34128575],[-3.70156652,40.34133164],[-3.70150683,40.34135907],[-3.701424,40.34139108],[-3.70138337,40.34140931],[-3.70117129,40.34150522],[-3.70113766,40.34152343],[-3.7010764,40.34154632],[-3.7009293,40.34162381],[-3.70084733,40.34166482],[-3.70077852,40.34170129],[-3.70073938,40.34171957],[-3.70061241,40.34179237],[-3.70052802,40.34184696],[-3.7004849,40.34187425],[-3.70042162,40.34191065],[-3.70032226,40.34197884],[-3.70017936,40.34207432],[-3.70011841,40.34212419],[-3.70006142,40.34216509],[-3.70000889,40.34220596],[-3.69977363,40.3424056],[-3.69821998,40.34370777],[-3.69817697,40.34374408],[-3.69815215,40.34376676],[-3.69804231,40.34385298],[-3.69784495,40.34402087],[-3.69779242,40.34406619],[-3.6977505,40.34410251],[-3.69762536,40.34420687],[-3.69755862,40.34426135],[-3.69743893,40.34435663],[-3.69736042,40.34442019],[-3.69721693,40.34452467],[-3.69706081,40.34462469],[-3.69699576,40.34466562],[-3.69678683,40.3447795],[-3.696744,40.34480228],[-3.696681,40.34482968],[-3.69665175,40.3448479],[-3.69654884,40.34489354],[-3.69646935,40.34493007],[-3.69640855,40.34495744],[-3.69630193,40.34500314],[-3.69618322,40.34505343],[-3.69611102,40.34508086],[-3.69603042,40.34511288],[-3.69599596,40.34512209],[-3.69583937,40.34517711],[-3.69576563,40.34519554],[-3.69340223,40.34576831],[-3.69332805,40.34578224],[-3.6931761,40.34581917],[-3.69296058,40.34586552],[-3.69295528,40.3457079],[-3.69293461,40.34508638],[-3.69292389,40.34476214],[-3.69290597,40.34423069],[-3.69290381,40.34416312],[-3.69288577,40.34362271],[-3.69284538,40.34240667],[-3.69283173,40.34186174],[-3.69278255,40.34032594],[-3.69275897,40.33963689],[-3.69269974,40.33790748],[-3.69268301,40.33742555],[-3.69265484,40.33650231],[-3.69264419,40.33614647],[-3.69264362,40.33612749]]]],"type":"MultiPolygon"},"properties":{"cusec":"2807917106"},"type":"Feature"},{"geometry":{"coordinates":[[[[-3.70253265,40.34998623],[-3.70456977,40.35034903],[-3.7048676,40.35022804],[-3.70447569,40.34969171],[-3.70618552,40.3490106],[-3.70618565,40.34908752],[-3.70603033,40.34950287],[-3.70596117,40.34975556],[-3.70603853,40.34990372],[-3.706314,40.35020386],[-3.70647023,40.3503696],[-3.70662654,40.35053981],[-3.70677965,40.35071456],[-3.70685524,40.35079966],[-3.70693265,40.35088482],[-3.70743825,40.35148083],[-3.70765224,40.35174977],[-3.70818676,40.35233213],[-3.70850071,40.35261848],[-3.70854681,40.35266084],[-3.7067295,40.35378957],[-3.70662399,40.35357592],[-3.70659405,40.35353103],[-3.70653857,40.35343232],[-3.70651651,40.35339641],[-3.7064508,40.35330671],[-3.70633633,40.3531272],[-3.70631697,40.35310481],[-3.70626222,40.35304206],[-3.70623655,40.35301522],[-3.70621042,40.35297933],[-3.70615533,40.35291658],[-3.70599902,40.35275089],[-3.70597925,40.35272848],[-3.70594287,40.35269268],[-3.70590712,40.35265683],[-3.70586961,40.35262106],[-3.70565646,40.35243765],[-3.7056386,40.35241977],[-3.70556891,40.35237064],[-3.70553958,40.35234375],[-3.70552212,40.35233037],[-3.70550342,40.35231533],[-3.70544982,40.35227224],[-3.70542159,40.35224991],[-3.70538817,40.35222308],[-3.7052576,40.35212027],[-3.70392103,40.3510563],[-3.70354434,40.35074775],[-3.70314308,40.35044842],[-3.70253265,40.34998623]]]],"type":"MultiPolygon"},"properties":{"cusec":"2807917113"},"type":"Feature"},{"geometry":{"coordinates":[[[[-3.70253265,40.34998623],[-3.70252329,40.34997914],[-3.70246119,40.34991649],[-3.70238627,40.34985838],[-3.70143516,40.34912089],[-3.70079746,40.34862474],[-3.70077036,40.34860239],[-3.70072774,40.34857112],[-3.70072585,40.34856953],[-3.70195572,40.34763225],[-3.70323434,40.34741066],[-3.70324494,40.34742521],[-3.70330498,40.34750592],[-3.70332176,40.34752835],[-3.70369134,40.34803959],[-3.70406017,40.3485464],[-3.7040817,40.34860031],[-3.70420741,40.34858606],[-3.70481035,40.34860489],[-3.70484868,40.34860916],[-3.70496978,40.34861292],[-3.70507834,40.34861226],[-3.7051299,40.34861647],[-3.70515642,40.34862081],[-3.70519879,40.34862955],[-3.70524156,40.34863833],[-3.70529328,40.34865603],[-3.70533502,40.34866926],[-3.70606345,40.34897564],[-3.70610849,40.34898889],[-3.70618551,40.34900191],[-3.70618552,40.3490106],[-3.70447569,40.34969171],[-3.7048676,40.35022804],[-3.70456977,40.35034903],[-3.70253265,40.34998623]]]],"type":"MultiPolygon"},"properties":{"cusec":"2807917119"},"type":"Feature"},{"geometry":{"coordinates":[[[[-3.69258913,40.33407802],[-3.70128386,40.33390256],[-3.70133049,40.33599991],[-3.69264362,40.33612749],[-3.69263357,40.3357907],[-3.69261346,40.33511511],[-3.69258913,40.33407802]]]],"type":"MultiPolygon"},"properties":{"cusec":"2807917120"},"type":"Feature"},{"geometry":{"coordinates":[[[[-3.61159505,40.3696502],[-3.61237476,40.36874435],[-3.61136056,40.36824914],[-3.61200213,40.36747505],[-3.61508913,40.36898952],[-3.61426765,40.36997305],[-3.61363144,40.37066806],[-3.6130933,40.37039358],[-3.61159698,40.36965116],[-3.61159505,40.3696502]]]],"type":"MultiPolygon"},"properties":{"cusec":"2807918054"},"type":"Feature"},{"geometry":{"coordinates":[[[[-3.58464767,40.35873863],[-3.58464452,40.35874935],[-3.58507565,40.35896298],[-3.58576532,40.3592879],[-3.58676317,40.35978953],[-3.58809341,40.36043021],[-3.58917756,40.3609783],[-3.58984274,40.36130331],[-3.59047175,40.36161154],[-3.5898732,40.36231061],[-3.58985828,40.36232822],[-3.58919186,40.36311485],[-3.58403163,40.36060304],[-3.58464767,40.35873863]]]],"type":"MultiPolygon"},"properties":{"cusec":"2807918057"},"type":"Feature"},{"geometry":{"coordinates":[[[[-3.59213237,40.3556298],[-3.59075749,40.35719359],[-3.59360559,40.35792271],[-3.59331906,40.35822585],[-3.59331845,40.35822555],[-3.5933118,40.35823354],[-3.59190246,40.35992702],[-3.5915013,40.36040904],[-3.59047175,40.36161154],[-3.58984274,40.36130331],[-3.58917756,40.3609783],[-3.58809341,40.36043021],[-3.58676317,40.35978953],[-3.58576532,40.3592879],[-3.58507565,40.35896298],[-3.58464452,40.35874935],[-3.58465258,40.35872195],[-3.58479943,40.35822313],[-3.58503905,40.35756512],[-3.58523172,40.3571513],[-3.5854628,40.35692494],[-3.58580272,40.35651976],[-3.5861558,40.35621772],[-3.58652154,40.35596253],[-3.58685105,40.35577321],[-3.58726633,40.35557407],[-3.58770655,40.35542171],[-3.58814716,40.35531626],[-3.58882064,40.35519087],[-3.58944587,40.35515954],[-3.5901576,40.35520283],[-3.59089451,40.35532106],[-3.59211138,40.35562448],[-3.5921269,40.35562842],[-3.59213237,40.3556298]]]],"type":"MultiPolygon"},"properties":{"cusec":"2807918058"},"type":"Feature"},{"geometry":{"coordinates":[[[[-3.61200213,40.36747505],[-3.61136056,40.36824914],[-3.61237476,40.36874435],[-3.61159505,40.3696502],[-3.60963683,40.36867855],[-3.61104775,40.36700681],[-3.61106426,40.36701491],[-3.61200213,40.36747505]]]],"type":"MultiPolygon"},"properties":{"cusec":"2807918074"},"type":"Feature"},{"geometry":{"coordinates":[[[[-3.58464767,40.35873863],[-3.58403163,40.36060304],[-3.58919186,40.36311485],[-3.58853984,40.36388445],[-3.58835582,40.36410166],[-3.58790617,40.36462982],[-3.58718606,40.36547563],[-3.58598485,40.36691082],[-3.58542164,40.36762862],[-3.58523391,40.36752764],[-3.58513854,40.36747856],[-3.58504507,40.36743399],[-3.58496229,40.36739836],[-3.58486961,40.36736279],[-3.58473664,40.36731392],[-3.58470564,40.36730504],[-3.58460526,40.36727403],[-3.58454511,40.36726086],[-3.5844932,40.3672521],[-3.58429526,40.36721705],[-3.5842665,40.36721269],[-3.58414522,40.36719978],[-3.58404838,40.36718678],[-3.58358995,40.36717104],[-3.58296921,40.36715164],[-3.57944235,40.3670252],[-3.5791379,40.36701318],[-3.57908894,40.36701342],[-3.57899396,40.36700938],[-3.57883404,40.36699669],[-3.57865721,40.36697505],[-3.57853407,40.36695311],[-3.57848399,40.36694438],[-3.57831028,40.36690923],[-3.57819298,40.36687824],[-3.57809153,40.36685174],[-3.57800186,40.36682516],[-3.57798419,40.36682074],[-3.57795276,40.36681187],[-3.57783392,40.36676745],[-3.57763562,40.36669185],[-3.57751624,40.36663836],[-3.57739504,40.36658046],[-3.57728335,40.36651795],[-3.57711948,40.36641965],[-3.57703508,40.36636601],[-3.57636837,40.36591434],[-3.57618104,40.36578961],[-3.5780137,40.36421775],[-3.5782225,40.36385439],[-3.58009897,40.3631871],[-3.58044658,40.36302326],[-3.58050702,40.36280366],[-3.57964014,40.36200709],[-3.57973429,40.36135826],[-3.57991888,40.36108083],[-3.58021515,40.36074563],[-3.58058424,40.36018123],[-3.58081499,40.3594745],[-3.5810974,40.35897727],[-3.58143941,40.3581651],[-3.5823994,40.35529985],[-3.58359181,40.35193762],[-3.584352,40.35193378],[-3.58633174,40.35172353],[-3.58680736,40.35195949],[-3.58753298,40.35227999],[-3.5878948,40.35232582],[-3.58860696,40.35253196],[-3.58924503,40.35281476],[-3.59001976,40.35304917],[-3.59065617,40.35314127],[-3.59186702,40.35336392],[-3.59262906,40.35356978],[-3.5921269,40.35562842],[-3.59211138,40.35562448],[-3.59089451,40.35532106],[-3.5901576,40.35520283],[-3.58944587,40.35515954],[-3.58882064,40.35519087],[-3.58814716,40.35531626],[-3.58770655,40.35542171],[-3.58726633,40.35557407],[-3.58685105,40.35577321],[-3.58652154,40.35596253],[-3.5861558,40.35621772],[-3.58580272,40.35651976],[-3.5854628,40.35692494],[-3.58523172,40.3571513],[-3.58503905,40.35756512],[-3.58479943,40.35822313],[-3.58465258,40.35872195],[-3.58464767,40.35873863]]]],"type":"MultiPolygon"},"properties":{"cusec":"2807918075"},"type":"Feature"},{"geometry":{"coordinates":[[[[-3.59331906,40.35822585],[-3.59360559,40.35792271],[-3.59075749,40.35719359],[-3.59213237,40.3556298],[-3.59359872,40.35600157],[-3.59491406,40.356342],[-3.59635238,40.35671931],[-3.59715155,40.35694038],[-3.59792595,40.35713343],[-3.59876226,40.35739183],[-3.5993653,40.35762329],[-3.6000305,40.35794825],[-3.6006101,40.3583018],[-3.60112863,40.35868381],[-3.60162247,40.35904718],[-3.60203046,40.35941099],[-3.60246349,40.35983097],[-3.60278555,40.36018585],[-3.60307124,40.36058783],[-3.60340574,40.3609614],[-3.6037888,40.36127843],[-3.60419531,40.36147335],[-3.60612961,40.36242969],[-3.60725081,40.36298679],[-3.60914905,40.36392038],[-3.60881448,40.36428055],[-3.6061594,40.36695293],[-3.60344342,40.365612],[-3.60418607,40.36472868],[-3.6048177,40.36393143],[-3.60387501,40.36346478],[-3.60154578,40.3623117],[-3.60119667,40.36213563],[-3.59957689,40.36131872],[-3.59931629,40.36118728],[-3.59756598,40.3603519],[-3.59739207,40.3602689],[-3.59553167,40.35933794],[-3.59331906,40.35822585]]]],"type":"MultiPolygon"},"properties":{"cusec":"2807918076"},"type":"Feature"},{"geometry":{"coordinates":[[[[-3.60805808,40.40292213],[-3.60852831,40.40231967],[-3.60824633,40.4021686],[-3.6086471,40.40166115],[-3.60909813,40.40188761],[-3.60976228,40.40223689],[-3.61099025,40.40286923],[-3.61176802,40.40199554],[-3.61299567,40.40238469],[-3.61307398,40.40240569],[-3.61620504,40.40306893],[-3.61670671,40.40333885],[-3.61673605,40.40338737],[-3.61684105,40.40367512],[-3.61605052,40.40408921],[-3.61601984,40.40410804],[-3.61556192,40.40438914],[-3.6150313,40.40467572],[-3.61490185,40.40478005],[-3.61447537,40.40473724],[-3.61394778,40.40467697],[-3.61337441,40.40459893],[-3.61232582,40.40446486],[-3.61159612,40.40436509],[-3.60996975,40.40415746],[-3.60986098,40.40409947],[-3.60972511,40.40402361],[-3.60924988,40.40367022],[-3.60925011,40.40366123],[-3.60915114,40.40358967],[-3.60890165,40.4034018],[-3.60883264,40.40335259],[-3.6088083,40.40330316],[-3.60875973,40.40326739],[-3.6084834,40.40312923],[-3.60805808,40.40292213]]]],"type":"MultiPolygon"},"properties":{"cusec":"2807919002"},"type":"Feature"},{"geometry":{"coordinates":[[[[-3.56130382,40.40382024],[-3.56289419,40.40464845],[-3.56367264,40.40377224],[-3.56555781,40.40474033],[-3.56963157,40.40000086],[-3.57466131,40.40234274],[-3.58567846,40.4071692],[-3.5763303,40.41314193],[-3.57618029,40.41308272],[-3.57290097,40.41180165],[-3.57285188,40.41181857],[-3.55938708,40.40470111],[-3.56053374,40.40342502],[-3.56128552,40.4038409],[-3.56130382,40.40382024]]]],"type":"MultiPolygon"},"properties":{"cusec":"2807919052"},"type":"Feature"},{"geometry":{"coordinates":[[[[-3.54490198,40.3935627],[-3.54857904,40.39293476],[-3.54867928,40.40287497],[-3.5467123,40.40290188],[-3.54672428,40.4013],[-3.54486614,40.4013183],[-3.54490198,40.3935627]]]],"type":"MultiPolygon"},"properties":{"cusec":"2807919053"},"type":"Feature"},{"geometry":{"coordinates":[[[[-3.54862856,40.39784599],[-3.55146493,40.39786747],[-3.55712633,40.40083421],[-3.55898045,40.39882298],[-3.56056415,40.39965249],[-3.55704254,40.40354677],[-3.5570862,40.40356872],[-3.55530341,40.40546056],[-3.55275942,40.40551089],[-3.55275962,40.4055574],[-3.54870577,40.40550159],[-3.54862856,40.39784599]]]],"type":"MultiPolygon"},"properties":{"cusec":"2807919054"},"type":"Feature"},{"geometry":{"coordinates":[[[[-3.61176802,40.40199554],[-3.61099025,40.40286923],[-3.60976228,40.40223689],[-3.60909813,40.40188761],[-3.6086471,40.40166115],[-3.60824633,40.4021686],[-3.60852831,40.40231967],[-3.60805808,40.40292213],[-3.6080532,40.40291975],[-3.6079023,40.40284845],[-3.60767979,40.40275956],[-3.60693506,40.40241659],[-3.6069448,40.40239403],[-3.60724793,40.40170322],[-3.60729089,40.40160843],[-3.60734137,40.40152704],[-3.6074879,40.4014047],[-3.60755839,40.40137726],[-3.60769381,40.4012865],[-3.60763451,40.4012778],[-3.60726484,40.40124817],[-3.6072231,40.40127545],[-3.60716755,40.40128475],[-3.60684178,40.40125489],[-3.60647688,40.40116591],[-3.60629927,40.40112261],[-3.60623017,40.40110045],[-3.60635361,40.40070424],[-3.60636525,40.40066687],[-3.60666394,40.39987379],[-3.60660305,40.39970604],[-3.60964665,40.40107677],[-3.60964962,40.40107352],[-3.61165392,40.40195937],[-3.61176802,40.40199554]]]],"type":"MultiPolygon"},"properties":{"cusec":"2807919057"},"type":"Feature"},{"geometry":{"coordinates":[[[[-3.56130382,40.40382024],[-3.56613152,40.39837099],[-3.56963157,40.40000086],[-3.56555781,40.40474033],[-3.56367264,40.40377224],[-3.56289419,40.40464845],[-3.56130382,40.40382024]]]],"type":"MultiPolygon"},"properties":{"cusec":"2807919058"},"type":"Feature"},{"geometry":{"coordinates":[[[[-3.54490198,40.3935627],[-3.54486614,40.4013183],[-3.54672428,40.4013],[-3.5467123,40.40290188],[-3.54867928,40.40287497],[-3.54870577,40.40550159],[-3.55275962,40.4055574],[-3.55278628,40.41179062],[-3.55277852,40.41179124],[-3.55236828,40.41180222],[-3.5520445,40.4118443],[-3.55187739,40.41185858],[-3.55169851,40.41186849],[-3.5514201,40.4118743],[-3.55109856,40.41188033],[-3.55059435,40.41192326],[-3.55040603,40.41195121],[-3.5502214,40.4119836],[-3.54996592,40.41205237],[-3.5496604,40.41216193],[-3.54928715,40.41232584],[-3.54590923,40.41163458],[-3.54556203,40.41155964],[-3.5453853,40.41152446],[-3.54512672,40.41147163],[-3.54497776,40.4114498],[-3.54490987,40.41143658],[-3.54473946,40.41141036],[-3.54444444,40.41136219],[-3.54436996,40.41135356],[-3.54414942,40.41131852],[-3.54408303,40.41130535],[-3.54381465,40.41127059],[-3.54339328,40.41122301],[-3.54304954,40.41112548],[-3.54280274,40.41107258],[-3.54253114,40.41100628],[-3.54217195,40.4109044],[-3.541774,40.41079362],[-3.54147052,40.41070046],[-3.54122363,40.41063856],[-3.54096016,40.41058123],[-3.54070551,40.41055985],[-3.54048281,40.41057443],[-3.54026,40.41057547],[-3.54002067,40.41054505],[-3.53977113,40.41042907],[-3.53976239,40.41049766],[-3.53973788,40.41069049],[-3.53973816,40.41072532],[-3.53973942,40.41088418],[-3.5397811,40.41112275],[-3.53979727,40.41121274],[-3.53979166,40.41138395],[-3.53975262,40.41151928],[-3.53965781,40.41159177],[-3.53952237,40.41161045],[-3.53937126,40.41159761],[-3.53921868,40.41153975],[-3.53898828,40.41146876],[-3.53874869,40.4113978],[-3.53847843,40.41135852],[-3.53829407,40.41142698],[-3.53806481,40.41150011],[-3.53796586,40.41165371],[-3.53793576,40.41189709],[-3.53792939,40.41211335],[-3.53786674,40.41225331],[-3.53774737,40.41234392],[-3.53753354,40.41245305],[-3.53728772,40.41252624],[-3.53699335,40.41255911],[-3.53674737,40.41256928],[-3.53642899,40.41255272],[-3.53621659,40.41251771],[-3.53625443,40.41269318],[-3.53616874,40.4129008],[-3.53603398,40.41299602],[-3.53585171,40.41305091],[-3.53563226,40.41315102],[-3.53517078,40.41441442],[-3.53492464,40.4141678],[-3.53472957,40.41409213],[-3.53445078,40.41400784],[-3.5340786,40.41388793],[-3.53373502,40.4138039],[-3.53334453,40.41375619],[-3.53288924,40.41374475],[-3.53243426,40.41373783],[-3.53211789,40.41373928],[-3.53209947,40.41373937],[-3.53181214,40.41373616],[-3.53153413,40.41379152],[-3.53134561,40.41380139],[-3.53096819,40.41390672],[-3.53062553,40.4139398],[-3.53030955,40.41394577],[-3.52993822,40.41394294],[-3.52957772,40.41395361],[-3.52932129,40.41399082],[-3.53103887,40.41958213],[-3.53119357,40.42008514],[-3.53119203,40.4200847],[-3.53118999,40.42008416],[-3.53081075,40.41982366],[-3.53041611,40.4195526],[-3.52989466,40.41919098],[-3.52956549,40.41897067],[-3.52927962,40.41877937],[-3.52923544,40.41874854],[-3.52870952,40.41838196],[-3.52801176,40.41793019],[-3.52791588,40.41786798],[-3.52785667,40.41782954],[-3.5277662,40.41777076],[-3.52768416,40.41771752],[-3.52760657,40.41766715],[-3.52747745,40.41759396],[-3.52738844,40.41754349],[-3.52707381,40.41736508],[-3.5264832,40.41705245],[-3.52616254,40.41689625],[-3.52611272,40.41687196],[-3.52601225,40.41682303],[-3.52554313,40.41655954],[-3.52527563,40.41640925],[-3.52516138,40.41634506],[-3.52506403,40.41629039],[-3.52504899,40.41626507],[-3.52503378,40.41623953],[-3.52482139,40.41588175],[-3.52472782,40.41572409],[-3.52450981,40.41535687],[-3.52424108,40.41518616],[-3.5240138,40.4150418],[-3.52359568,40.41477623],[-3.52287763,40.41432008],[-3.52279815,40.41426859],[-3.52271057,40.41421183],[-3.52256482,40.414108],[-3.52242602,40.41399236],[-3.52230105,40.413867],[-3.52224899,40.41381478],[-3.52218323,40.41372934],[-3.52202995,40.41353017],[-3.5213956,40.41269814],[-3.52120467,40.41244824],[-3.52119645,40.41243752],[-3.52093336,40.41209185],[-3.52071915,40.41167387],[-3.52034674,40.41071158],[-3.5203054,40.41060368],[-3.51991902,40.40992971],[-3.5198574,40.40981286],[-3.51975357,40.40963314],[-3.51966035,40.40948492],[-3.51950536,40.40925134],[-3.51936502,40.4090583],[-3.51930063,40.40896849],[-3.51928007,40.40892803],[-3.51926471,40.40889208],[-3.51924999,40.40885159],[-3.51924389,40.40882462],[-3.51924257,40.40879756],[-3.51924212,40.40873902],[-3.51924428,40.40868045],[-3.51924955,40.40859933],[-3.51925699,40.40850922],[-3.5192625,40.40845966],[-3.51927003,40.40838754],[-3.51929109,40.40820277],[-3.51931109,40.40803149],[-3.51932197,40.40790532],[-3.51934073,40.4077611],[-3.51935406,40.4076304],[-3.51936232,40.40750424],[-3.51937212,40.40739155],[-3.51937471,40.4072474],[-3.51937929,40.40708071],[-3.51938265,40.40693657],[-3.51937552,40.40677445],[-3.5193739,40.40671138],[-3.51937085,40.40660328],[-3.51936684,40.40641409],[-3.51935505,40.40622047],[-3.51934179,40.40603133],[-3.5193217,40.40590978],[-3.51929877,40.40579726],[-3.51927101,40.40558568],[-3.51920714,40.40523462],[-3.51917633,40.40505457],[-3.51915906,40.40496454],[-3.51912978,40.4048476],[-3.51910061,40.40473509],[-3.51907185,40.4046361],[-3.5190369,40.4045507],[-3.51897937,40.40443831],[-3.51892777,40.40433498],[-3.51892207,40.40432146],[-3.51885492,40.40420465],[-3.5187582,40.4040339],[-3.51868324,40.40390811],[-3.51860904,40.40378681],[-3.51853397,40.40364753],[-3.51841531,40.40340031],[-3.51836958,40.40329689],[-3.51833841,40.40321594],[-3.51830727,40.4031395],[-3.5182852,40.40305403],[-3.51826952,40.40296851],[-3.51824704,40.40282893],[-3.518236,40.40263529],[-3.51823472,40.40246863],[-3.51823737,40.402329],[-3.51823841,40.40218034],[-3.51824322,40.40213526],[-3.51825274,40.40203615],[-3.51826724,40.40190544],[-3.51828144,40.40179277],[-3.51829808,40.40165304],[-3.51833332,40.40149521],[-3.5185111,40.40066108],[-3.51856696,40.40045813],[-3.51862459,40.40028669],[-3.51869052,40.4000972],[-3.51873555,40.39997087],[-3.5187817,40.39984003],[-3.51885534,40.399646],[-3.5190085,40.39930298],[-3.519145,40.39900054],[-3.51921826,40.39885159],[-3.51928786,40.39870714],[-3.51948951,40.39825578],[-3.51951267,40.39820161],[-3.51953208,40.39814294],[-3.51956069,40.39803471],[-3.51959836,40.39785435],[-3.51999642,40.39559578],[-3.52005744,40.39524865],[-3.52006664,40.39519907],[-3.52031749,40.39377899],[-3.52032939,40.39355369],[-3.52040136,40.39220801],[-3.52040698,40.3921029],[-3.52045079,40.39209821],[-3.52258979,40.39186332],[-3.52434338,40.39084189],[-3.5268909,40.38979429],[-3.52863041,40.38948003],[-3.52915104,40.3893831],[-3.52960267,40.38969635],[-3.53208573,40.39142376],[-3.5328618,40.39169045],[-3.53734212,40.39131393],[-3.5398899,40.39225255],[-3.54038983,40.39242139],[-3.54195564,40.39295017],[-3.54199107,40.39296351],[-3.54209258,40.39299455],[-3.5424506,40.39311468],[-3.54245532,40.39311627],[-3.54246225,40.39397927],[-3.54490198,40.3935627]]]],"type":"MultiPolygon"},"properties":{"cusec":"2807919059"},"type":"Feature"},{"geometry":{"coordinates":[[[[-3.55984385,40.39544254],[-3.55755876,40.39807184],[-3.55620667,40.39743953],[-3.55435145,40.39938016],[-3.55146493,40.39786747],[-3.54862856,40.39784599],[-3.54857904,40.39293476],[-3.54857897,40.3929283],[-3.55163478,40.39276767],[-3.55598082,40.39354776],[-3.55958697,40.39532289],[-3.55984385,40.39544254]]]],"type":"MultiPolygon"},"properties":{"cusec":"2807919060"},"type":"Feature"},{"geometry":{"coordinates":[[[[-3.55435145,40.39938016],[-3.55620667,40.39743953],[-3.55755876,40.39807184],[-3.55984385,40.39544254],[-3.56302924,40.3969262],[-3.56056415,40.39965249],[-3.55898045,40.39882298],[-3.55712633,40.40083421],[-3.55435145,40.39938016]]]],"type":"MultiPolygon"},"properties":{"cusec":"2807919061"},"type":"Feature"},{"geometry":{"coordinates":[[[[-3.62370959,40.42794945],[-3.62397547,40.42777685],[-3.62445102,40.42737337],[-3.6247308,40.42719169],[-3.62494063,40.42701039],[-3.62526271,40.42674287],[-3.62568899,40.42642977],[-3.62824202,40.4244925],[-3.62865389,40.42505331],[-3.6289447,40.42542561],[-3.62910447,40.42564548],[-3.62951032,40.42618831],[-3.63002797,40.4268702],[-3.63027991,40.42722019],[-3.63067562,40.42777659],[-3.63037454,40.42788638],[-3.62995141,40.42806435],[-3.62979713,40.42783545],[-3.62955488,40.42773314],[-3.62939622,40.42766644],[-3.62957306,40.42742675],[-3.62926277,40.4272978],[-3.62938355,40.42713046],[-3.62917003,40.4270325],[-3.62878055,40.42686349],[-3.62866648,40.42699923],[-3.62852495,40.42707208],[-3.62835739,40.42699641],[-3.62839593,40.42690607],[-3.62840628,40.42678895],[-3.62841403,40.42662671],[-3.62784188,40.42686858],[-3.6272026,40.42713329],[-3.62726069,40.42720056],[-3.62727152,40.42721849],[-3.62728279,40.42724093],[-3.6273305,40.42733977],[-3.62734667,40.42737578],[-3.62735625,40.42741172],[-3.6273645,40.42747024],[-3.62736646,40.42751981],[-3.62736503,40.42760539],[-3.62736199,40.42763694],[-3.62731016,40.42788497],[-3.6272691,40.42802935],[-3.62718022,40.42837214],[-3.62715429,40.42847592],[-3.62711004,40.42847166],[-3.62705506,40.42846293],[-3.62682923,40.4284236],[-3.62679965,40.42841476],[-3.62675468,40.42841052],[-3.62673549,40.42840612],[-3.62663104,40.42838414],[-3.62653025,40.42836217],[-3.62645715,40.42834454],[-3.62641247,40.42833578],[-3.62632018,40.42831375],[-3.62624005,40.42829616],[-3.6261057,40.42826535],[-3.62607834,40.42825647],[-3.62598487,40.42822999],[-3.62587961,40.42819899],[-3.62581826,40.42818133],[-3.62578761,40.42817247],[-3.62568581,40.42811898],[-3.62566812,40.42811457],[-3.6256395,40.4280922],[-3.62561515,40.42808329],[-3.62560138,40.42807436],[-3.62557952,40.42806099],[-3.62555878,40.42804758],[-3.62554325,40.42803868],[-3.62552651,40.42802525],[-3.6255047,40.42801634],[-3.6253986,40.4278953],[-3.62536336,40.42790902],[-3.62525334,40.42795917],[-3.62512344,40.4280184],[-3.6249676,40.42810033],[-3.6249288,40.42812307],[-3.62487199,40.42815491],[-3.62476715,40.42821399],[-3.62469796,40.42825943],[-3.62460964,40.42831398],[-3.62456826,40.4283412],[-3.62441093,40.42845467],[-3.62433488,40.42851816],[-3.62427569,40.42856804],[-3.62422086,40.42861789],[-3.62416199,40.42866771],[-3.624128,40.42869946],[-3.62401124,40.42881722],[-3.62396745,40.42886251],[-3.62394738,40.42888509],[-3.62376458,40.4290753],[-3.62372305,40.42912509],[-3.62366947,40.42918842],[-3.62364285,40.42922008],[-3.62360981,40.42927433],[-3.6235789,40.42931503],[-3.62355165,40.42936022],[-3.62349685,40.42945064],[-3.62346652,40.42951834],[-3.62345032,40.42955446],[-3.62340551,40.42969432],[-3.62337154,40.42984317],[-3.62329067,40.4301409],[-3.62296437,40.43139492],[-3.62282465,40.43194072],[-3.62242904,40.43346989],[-3.62254768,40.43363142],[-3.62297483,40.43420568],[-3.62304233,40.43429994],[-3.62262399,40.43451843],[-3.62253948,40.43458193],[-3.6223228,40.43421823],[-3.62182923,40.43339654],[-3.62174508,40.43325734],[-3.62159552,40.43305995],[-3.62167519,40.43282979],[-3.62174418,40.43251858],[-3.62178638,40.43237874],[-3.62187076,40.432099],[-3.62196973,40.43168403],[-3.62203993,40.4313864],[-3.62222308,40.43066918],[-3.62230787,40.43031737],[-3.62244827,40.42980308],[-3.62249074,40.42956862],[-3.62254718,40.42937911],[-3.62261717,40.42921659],[-3.62277142,40.42892745],[-3.6228279,40.42877852],[-3.62293977,40.42868333],[-3.62305177,40.42852507],[-3.62320567,40.42835307],[-3.62333188,40.42825778],[-3.62344376,40.4281626],[-3.62346124,40.42814446],[-3.62355556,40.42806738],[-3.62370959,40.42794945]]]],"type":"MultiPolygon"},"properties":{"cusec":"2807920017"},"type":"Feature"},{"geometry":{"coordinates":[[[[-3.59131179,40.44343058],[-3.58782983,40.44315295],[-3.58748677,40.44388409],[-3.58860011,40.4441883],[-3.58807356,40.44534467],[-3.58896113,40.44551654],[-3.58947923,40.44553773],[-3.59014519,40.44553433],[-3.58995053,40.44592043],[-3.5895405,40.44653966],[-3.58926848,40.44710529],[-3.58904091,40.44747673],[-3.58847131,40.448326],[-3.58776536,40.44942281],[-3.58746745,40.44993247],[-3.58743668,40.449932],[-3.58233985,40.44982458],[-3.5822972,40.44872559],[-3.58248515,40.44715206],[-3.5828,40.44526999],[-3.58291424,40.44468798],[-3.58308952,40.44379494],[-3.58347639,40.44192349],[-3.58349937,40.44168407],[-3.58441935,40.44177148],[-3.5845805,40.44178421],[-3.58488477,40.44181421],[-3.58513665,40.44183997],[-3.58529826,40.44186617],[-3.5854798,40.44189228],[-3.58551745,40.44190111],[-3.58624097,40.441965],[-3.58630918,40.44196915],[-3.58692229,40.44201111],[-3.58854344,40.44215604],[-3.58881777,40.44218168],[-3.58924516,40.44221554],[-3.58947157,40.44223688],[-3.58966777,40.44225393],[-3.590093,40.4422923],[-3.59053738,40.44233509],[-3.59064097,40.44234357],[-3.59071286,40.44234769],[-3.59138077,40.44241186],[-3.5915401,40.44242459],[-3.59178863,40.44245004],[-3.59160841,40.44284389],[-3.59131349,40.44342727],[-3.59131179,40.44343058]]]],"type":"MultiPolygon"},"properties":{"cusec":"2807920121"},"type":"Feature"},{"geometry":{"coordinates":[[[[-3.59131179,40.44343058],[-3.59104118,40.44395764],[-3.59081441,40.44441725],[-3.59049579,40.44493022],[-3.59020008,40.44542544],[-3.59014519,40.44553433],[-3.58947923,40.44553773],[-3.58896113,40.44551654],[-3.58807356,40.44534467],[-3.58860011,40.4441883],[-3.58748677,40.44388409],[-3.58782983,40.44315295],[-3.59131179,40.44343058]]]],"type":"MultiPolygon"},"properties":{"cusec":"2807920129"},"type":"Feature"}],"type":"FeatureCollection"}
